{"type": "FeatureCollection", "features": [{"type": "Feature", "geometry": {"type": "LineString", "coordinates": [[11.5591418, 48.1475092], [11.559189, 48.1474983], [11.5592305, 48.1474876], [11.5594493, 48.1474319]]}, "properties": {"group": "way", "way_id": 4592386, "tags": {"highway": "secondary"}, "bridge": false, "node_ids": [773275788, 6636918835, 6636918839, 1011797584], "n_nodes": 4, "stroke": "#999999", "stroke-width": 6, "stroke-opacity": 0.4}}, {"type": "Feature", "geometry": {"type": "LineString", "coordinates": [[11.5723754, 48.1437796], [11.5721648, 48.1438351], [11.5720973, 48.1438534], [11.5718189, 48.1439289]]}, "properties": {"group": "way", "way_id": 25943195, "tags": {"highway": "secondary"}, "bridge": false, "node_ids": [539181323, 13381882283, 13727287460, 29559976], "n_nodes": 4, "stroke": "#999999", "stroke-width": 6, "stroke-opacity": 0.4}}, {"type": "Feature", "geometry": {"type": "LineString", "coordinates": [[11.5749022, 48.1431433], [11.5746666, 48.1431843], [11.5744608, 48.1432324]]}, "properties": {"group": "way", "way_id": 25943198, "tags": {"highway": "tertiary"}, "bridge": false, "node_ids": [682198273, 10288042807, 2489934487], "n_nodes": 3, "stroke": "#999999", "stroke-width": 6, "stroke-opacity": 0.4}}, {"type": "Feature", "geometry": {"type": "LineString", "coordinates": [[11.5695432, 48.1444337], [11.5696736, 48.1444717], [11.569751, 48.1444859], [11.569791, 48.1444887], [11.5698215, 48.1444897], [11.5698688, 48.1444914]]}, "properties": {"group": "way", "way_id": 28019890, "tags": {"highway": "secondary"}, "bridge": false, "node_ids": [18291210, 1242496715, 307678725, 13727287477, 13727287476, 13727287475], "n_nodes": 6, "stroke": "#999999", "stroke-width": 6, "stroke-opacity": 0.4}}, {"type": "Feature", "geometry": {"type": "LineString", "coordinates": [[11.5687924, 48.1449448], [11.5686464, 48.1449046], [11.568573, 48.1448935], [11.5684885, 48.1448808]]}, "properties": {"group": "way", "way_id": 28019891, "tags": {"highway": "secondary"}, "bridge": false, "node_ids": [259121070, 7962153105, 307678729, 307678634], "n_nodes": 4, "stroke": "#999999", "stroke-width": 6, "stroke-opacity": 0.4}}, {"type": "Feature", "geometry": {"type": "LineString", "coordinates": [[11.5737157, 48.1434047], [11.5736386, 48.1434292], [11.5735944, 48.1434471]]}, "properties": {"group": "way", "way_id": 43040852, "tags": {"highway": "secondary"}, "bridge": false, "node_ids": [277937476, 629662019, 618178354], "n_nodes": 3, "stroke": "#999999", "stroke-width": 6, "stroke-opacity": 0.4}}, {"type": "Feature", "geometry": {"type": "LineString", "coordinates": [[11.5735944, 48.1434471], [11.5734972, 48.1434743]]}, "properties": {"group": "way", "way_id": 43040870, "tags": {"highway": "secondary"}, "bridge": false, "node_ids": [618178354, 12073835619], "n_nodes": 2, "stroke": "#999999", "stroke-width": 6, "stroke-opacity": 0.4}}, {"type": "Feature", "geometry": {"type": "LineString", "coordinates": [[11.5613501, 48.1469176], [11.5614804, 48.1468794]]}, "properties": {"group": "way", "way_id": 49800593, "tags": {"highway": "secondary"}, "bridge": false, "node_ids": [1362827597, 1840947345], "n_nodes": 2, "stroke": "#999999", "stroke-width": 6, "stroke-opacity": 0.4}}, {"type": "Feature", "geometry": {"type": "LineString", "coordinates": [[11.5684885, 48.1448808], [11.5685689, 48.1447985], [11.5685863, 48.144778], [11.5686363, 48.1447191]]}, "properties": {"group": "way", "way_id": 51787588, "tags": {"highway": "secondary"}, "bridge": false, "node_ids": [307678634, 307678730, 7962153107, 1242496746], "n_nodes": 4, "stroke": "#999999", "stroke-width": 6, "stroke-opacity": 0.4}}, {"type": "Feature", "geometry": {"type": "LineString", "coordinates": [[11.5667909, 48.1453592], [11.5671222, 48.1452639], [11.567365, 48.1451947], [11.567729, 48.1450939], [11.567794, 48.1450757], [11.5684885, 48.1448808]]}, "properties": {"group": "way", "way_id": 51787589, "tags": {"highway": "secondary"}, "bridge": false, "node_ids": [9423153108, 4371655867, 4372462241, 11242047626, 4372462238, 307678634], "n_nodes": 6, "stroke": "#999999", "stroke-width": 6, "stroke-opacity": 0.4}}, {"type": "Feature", "geometry": {"type": "LineString", "coordinates": [[11.5698688, 48.1444914], [11.5698394, 48.1445153], [11.5697903, 48.1445548], [11.5697572, 48.1445891], [11.5697463, 48.1446005], [11.5696973, 48.1446531]]}, "properties": {"group": "way", "way_id": 51787590, "tags": {"highway": "secondary"}, "bridge": false, "node_ids": [13727287475, 307678631, 307678726, 1242496743, 7962153111, 307678707], "n_nodes": 6, "stroke": "#999999", "stroke-width": 6, "stroke-opacity": 0.4}}, {"type": "Feature", "geometry": {"type": "LineString", "coordinates": [[11.5759107, 48.1429535], [11.5753592, 48.1430764]]}, "properties": {"group": "way", "way_id": 57731066, "tags": {"highway": "tertiary"}, "bridge": false, "node_ids": [618178359, 612518275], "n_nodes": 2, "stroke": "#999999", "stroke-width": 6, "stroke-opacity": 0.4}}, {"type": "Feature", "geometry": {"type": "LineString", "coordinates": [[11.5594493, 48.1474319], [11.5598132, 48.1473356], [11.5598793, 48.1473181]]}, "properties": {"group": "way", "way_id": 86969970, "tags": {"highway": "secondary"}, "bridge": false, "node_ids": [1011797584, 6975605714, 6806546197], "n_nodes": 3, "stroke": "#999999", "stroke-width": 6, "stroke-opacity": 0.4}}, {"type": "Feature", "geometry": {"type": "LineString", "coordinates": [[11.5629771, 48.1465524], [11.5629213, 48.1465681], [11.5616565, 48.1469239], [11.5616286, 48.1469442], [11.5616209, 48.1469543], [11.5615431, 48.1469823], [11.5614124, 48.1470169], [11.56134, 48.1470008], [11.5599063, 48.1474064], [11.5598648, 48.1474183], [11.5598028, 48.147436]]}, "properties": {"group": "way", "way_id": 116514206, "tags": {"highway": "footway"}, "bridge": false, "node_ids": [1077566259, 8748885665, 1077566707, 1290733302, 1077566390, 1077566374, 1077566364, 1077566356, 1169537426, 6975605715, 11094167601], "n_nodes": 11, "stroke": "#999999", "stroke-width": 6, "stroke-opacity": 0.4}}, {"type": "Feature", "geometry": {"type": "LineString", "coordinates": [[11.5698688, 48.1444914], [11.5702204, 48.1443874]]}, "properties": {"group": "way", "way_id": 151526822, "tags": {"highway": "secondary"}, "bridge": false, "node_ids": [13727287475, 12063731517], "n_nodes": 2, "stroke": "#999999", "stroke-width": 6, "stroke-opacity": 0.4}}, {"type": "Feature", "geometry": {"type": "LineString", "coordinates": [[11.5775391, 48.1426618], [11.5774143, 48.1426514]]}, "properties": {"group": "way", "way_id": 151878378, "tags": {"highway": "tertiary"}, "bridge": false, "node_ids": [1647183678, 1647183689], "n_nodes": 2, "stroke": "#999999", "stroke-width": 6, "stroke-opacity": 0.4}}, {"type": "Feature", "geometry": {"type": "LineString", "coordinates": [[11.5765291, 48.1428258], [11.5763388, 48.1428652], [11.5759107, 48.1429535]]}, "properties": {"group": "way", "way_id": 151878388, "tags": {"highway": "tertiary"}, "bridge": false, "node_ids": [3837428518, 2492630083, 618178359], "n_nodes": 3, "stroke": "#999999", "stroke-width": 6, "stroke-opacity": 0.4}}, {"type": "Feature", "geometry": {"type": "LineString", "coordinates": [[11.5749022, 48.1431433], [11.5751503, 48.143107], [11.575167, 48.1431045]]}, "properties": {"group": "way", "way_id": 160015853, "tags": {"highway": "tertiary"}, "bridge": false, "node_ids": [682198273, 2492630094, 13765955290], "n_nodes": 3, "stroke": "#999999", "stroke-width": 6, "stroke-opacity": 0.4}}, {"type": "Feature", "geometry": {"type": "LineString", "coordinates": [[11.5734104, 48.1430978], [11.5735697, 48.1430621]]}, "properties": {"group": "way", "way_id": 172805782, "tags": {"highway": "footway"}, "bridge": false, "node_ids": [699687255, 283540983], "n_nodes": 2, "stroke": "#999999", "stroke-width": 6, "stroke-opacity": 0.4}}, {"type": "Feature", "geometry": {"type": "LineString", "coordinates": [[11.5744608, 48.1432324], [11.5739124, 48.143353], [11.5738149, 48.143377], [11.5737157, 48.1434047]]}, "properties": {"group": "way", "way_id": 241324016, "tags": {"highway": "tertiary"}, "bridge": false, "node_ids": [2489934487, 1627302698, 6381927934, 277937476], "n_nodes": 4, "stroke": "#999999", "stroke-width": 6, "stroke-opacity": 0.4}}, {"type": "Feature", "geometry": {"type": "LineString", "coordinates": [[11.5729224, 48.1431866], [11.5729807, 48.1431781], [11.5731514, 48.1431532], [11.5732209, 48.1431439]]}, "properties": {"group": "way", "way_id": 241324101, "tags": {"highway": "footway"}, "bridge": false, "node_ids": [2489934482, 13930555805, 13930555804, 13620576025], "n_nodes": 4, "stroke": "#999999", "stroke-width": 6, "stroke-opacity": 0.4}}, {"type": "Feature", "geometry": {"type": "LineString", "coordinates": [[11.5733706, 48.1430457], [11.5734104, 48.1430978], [11.5733243, 48.1431402], [11.5732584, 48.1431734]]}, "properties": {"group": "way", "way_id": 241324146, "tags": {"highway": "footway"}, "bridge": false, "node_ids": [699687254, 699687255, 699687256, 2489934479], "n_nodes": 4, "stroke": "#999999", "stroke-width": 6, "stroke-opacity": 0.4}}, {"type": "Feature", "geometry": {"type": "LineString", "coordinates": [[11.5738608, 48.1434952], [11.5737584, 48.1435158], [11.5737114, 48.1435269], [11.5736535, 48.1435425], [11.5735517, 48.1435647]]}, "properties": {"group": "way", "way_id": 241324154, "tags": {"highway": "footway"}, "bridge": false, "node_ids": [2489934554, 2489934571, 10288046215, 2489934594, 2489934895], "n_nodes": 5, "stroke": "#999999", "stroke-width": 6, "stroke-opacity": 0.4}}, {"type": "Feature", "geometry": {"type": "LineString", "coordinates": [[11.5755351, 48.1430894], [11.5752272, 48.1431536], [11.5750732, 48.1431879], [11.5746244, 48.143288]]}, "properties": {"group": "way", "way_id": 241674914, "tags": {"highway": "footway"}, "bridge": false, "node_ids": [642257335, 2492630099, 10311970427, 2492630116], "n_nodes": 4, "stroke": "#999999", "stroke-width": 6, "stroke-opacity": 0.4}}, {"type": "Feature", "geometry": {"type": "LineString", "coordinates": [[11.5746084, 48.1432517], [11.5746244, 48.143288], [11.5745263, 48.1433075], [11.5740792, 48.1434053], [11.5739688, 48.1434294], [11.5738456, 48.1434573]]}, "properties": {"group": "way", "way_id": 241674916, "tags": {"highway": "footway"}, "bridge": false, "node_ids": [2492630114, 2492630116, 3660527652, 13892674362, 9423167627, 2489934527], "n_nodes": 6, "stroke": "#999999", "stroke-width": 6, "stroke-opacity": 0.4}}, {"type": "Feature", "geometry": {"type": "LineString", "coordinates": [[11.5737716, 48.1432645], [11.5740528, 48.1432128], [11.5742248, 48.143181], [11.5743651, 48.1431598], [11.5746651, 48.1430992], [11.5751855, 48.1430403]]}, "properties": {"group": "way", "way_id": 241674921, "tags": {"highway": "footway"}, "bridge": false, "node_ids": [2489934491, 9423167629, 2492630101, 1720800591, 2492630097, 2492630090], "n_nodes": 6, "stroke": "#999999", "stroke-width": 6, "stroke-opacity": 0.4}}, {"type": "Feature", "geometry": {"type": "LineString", "coordinates": [[11.5733343, 48.1435212], [11.5731263, 48.1435782], [11.5729127, 48.1436351], [11.5728328, 48.1436573], [11.5726133, 48.1437157], [11.5723754, 48.1437796]]}, "properties": {"group": "way", "way_id": 292948255, "tags": {"highway": "secondary"}, "bridge": false, "node_ids": [1955476, 2489934605, 11753115977, 312391014, 1635744410, 539181323], "n_nodes": 6, "stroke": "#999999", "stroke-width": 6, "stroke-opacity": 0.4}}, {"type": "Feature", "geometry": {"type": "LineString", "coordinates": [[11.5627479, 48.1465184], [11.5625715, 48.1465671], [11.5621206, 48.1466937], [11.5615901, 48.1468507], [11.5614804, 48.1468794]]}, "properties": {"group": "way", "way_id": 292962064, "tags": {"highway": "secondary"}, "bridge": false, "node_ids": [10544230003, 2844721423, 2844721429, 1362827596, 1840947345], "n_nodes": 5, "stroke": "#999999", "stroke-width": 6, "stroke-opacity": 0.4}}, {"type": "Feature", "geometry": {"type": "LineString", "coordinates": [[11.5602014, 48.1472328], [11.5604853, 48.1471515], [11.5605477, 48.1471343], [11.5613501, 48.1469176]]}, "properties": {"group": "way", "way_id": 310707184, "tags": {"highway": "secondary"}, "bridge": false, "node_ids": [3161628294, 2830370616, 2830370656, 1362827597], "n_nodes": 4, "stroke": "#999999", "stroke-width": 6, "stroke-opacity": 0.4}}, {"type": "Feature", "geometry": {"type": "LineString", "coordinates": [[11.5736979, 48.1430334], [11.5735697, 48.1430621]]}, "properties": {"group": "way", "way_id": 370897069, "tags": {"highway": "footway"}, "bridge": false, "node_ids": [2489934461, 283540983], "n_nodes": 2, "stroke": "#999999", "stroke-width": 6, "stroke-opacity": 0.4}}, {"type": "Feature", "geometry": {"type": "LineString", "coordinates": [[11.5727569, 48.143336], [11.5727981, 48.1433483], [11.5729224, 48.1431866], [11.5730467, 48.1430204]]}, "properties": {"group": "way", "way_id": 370897073, "tags": {"highway": "footway"}, "bridge": false, "node_ids": [2489934503, 2489934501, 2489934482, 2489934463], "n_nodes": 4, "stroke": "#999999", "stroke-width": 6, "stroke-opacity": 0.4}}, {"type": "Feature", "geometry": {"type": "LineString", "coordinates": [[11.5735517, 48.1435647], [11.5733319, 48.143611], [11.5732294, 48.1436353], [11.5728867, 48.1437387], [11.571987, 48.1440059], [11.5719623, 48.1440306], [11.5718958, 48.1440457], [11.5718325, 48.1440634]]}, "properties": {"group": "way", "way_id": 370897074, "tags": {"highway": "footway"}, "bridge": false, "node_ids": [2489934895, 2489934892, 2489934907, 2489934963, 2489935083, 2489935098, 2489935101, 2489935116], "n_nodes": 8, "stroke": "#999999", "stroke-width": 6, "stroke-opacity": 0.4}}, {"type": "Feature", "geometry": {"type": "LineString", "coordinates": [[11.5773445, 48.1426568], [11.5769579, 48.1427369], [11.5765291, 48.1428258]]}, "properties": {"group": "way", "way_id": 380407135, "tags": {"highway": "tertiary"}, "bridge": false, "node_ids": [277937425, 4471945001, 3837428518], "n_nodes": 3, "stroke": "#999999", "stroke-width": 6, "stroke-opacity": 0.4}}, {"type": "Feature", "geometry": {"type": "LineString", "coordinates": [[11.5774143, 48.1426514], [11.5773445, 48.1426568]]}, "properties": {"group": "way", "way_id": 448672564, "tags": {"highway": "tertiary"}, "bridge": false, "node_ids": [1647183689, 277937425], "n_nodes": 2, "stroke": "#999999", "stroke-width": 6, "stroke-opacity": 0.4}}, {"type": "Feature", "geometry": {"type": "LineString", "coordinates": [[11.5591583, 48.1473673], [11.5592654, 48.147356], [11.5593818, 48.1473401], [11.5598654, 48.1471998], [11.5604203, 48.1470517], [11.5604813, 48.1470364], [11.5612912, 48.1468104], [11.5613593, 48.1467908], [11.5614165, 48.1467744], [11.561529, 48.1467424], [11.5620549, 48.1465931], [11.5625118, 48.1464634], [11.5628784, 48.1463593]]}, "properties": {"group": "way", "way_id": 725976302, "tags": {"highway": "footway"}, "bridge": false, "node_ids": [773276881, 1077566503, 1077566487, 13316574067, 1077566442, 2830369899, 1290733108, 4608620869, 1077566470, 1290733425, 2844721426, 2844721421, 6806546196], "n_nodes": 13, "stroke": "#999999", "stroke-width": 6, "stroke-opacity": 0.4}}, {"type": "Feature", "geometry": {"type": "LineString", "coordinates": [[11.5598793, 48.1473181], [11.5602014, 48.1472328]]}, "properties": {"group": "way", "way_id": 725976304, "tags": {"highway": "secondary"}, "bridge": false, "node_ids": [6806546197, 3161628294], "n_nodes": 2, "stroke": "#999999", "stroke-width": 6, "stroke-opacity": 0.4}}, {"type": "Feature", "geometry": {"type": "LineString", "coordinates": [[11.5635878, 48.1462649], [11.5629261, 48.1464692]]}, "properties": {"group": "way", "way_id": 725976306, "tags": {"highway": "secondary"}, "bridge": false, "node_ids": [1954387, 246878845], "n_nodes": 2, "stroke": "#999999", "stroke-width": 6, "stroke-opacity": 0.4}}, {"type": "Feature", "geometry": {"type": "LineString", "coordinates": [[11.5590271, 48.1475353], [11.5590505, 48.1475302], [11.5591418, 48.1475092]]}, "properties": {"group": "way", "way_id": 967098911, "tags": {"highway": "secondary"}, "bridge": false, "node_ids": [361790, 3997354938, 773275788], "n_nodes": 3, "stroke": "#999999", "stroke-width": 6, "stroke-opacity": 0.4}}, {"type": "Feature", "geometry": {"type": "LineString", "coordinates": [[11.5666032, 48.1454126], [11.566683, 48.1453899], [11.5667909, 48.1453592]]}, "properties": {"group": "way", "way_id": 968751243, "tags": {"highway": "secondary"}, "bridge": false, "node_ids": [618702506, 922879290, 9423153108], "n_nodes": 3, "stroke": "#999999", "stroke-width": 6, "stroke-opacity": 0.4}}, {"type": "Feature", "geometry": {"type": "LineString", "coordinates": [[11.5629261, 48.1464692], [11.5627479, 48.1465184]]}, "properties": {"group": "way", "way_id": 1131280885, "tags": {"highway": "secondary"}, "bridge": false, "node_ids": [246878845, 10544230003], "n_nodes": 2, "stroke": "#999999", "stroke-width": 6, "stroke-opacity": 0.4}}, {"type": "Feature", "geometry": {"type": "LineString", "coordinates": [[11.5734972, 48.1434743], [11.5733343, 48.1435212]]}, "properties": {"group": "way", "way_id": 1342612381, "tags": {"highway": "secondary"}, "bridge": false, "node_ids": [12073835619, 1955476], "n_nodes": 2, "stroke": "#999999", "stroke-width": 6, "stroke-opacity": 0.4}}, {"type": "Feature", "geometry": {"type": "LineString", "coordinates": [[11.5702204, 48.1443874], [11.5702758, 48.1443715], [11.5704507, 48.1443216], [11.5706088, 48.1442759], [11.5708764, 48.1441994], [11.5709075, 48.1441906], [11.5709916, 48.1441661], [11.5712465, 48.1440952], [11.5713828, 48.1440538], [11.5716513, 48.1439766]]}, "properties": {"group": "way", "way_id": 1501553731, "tags": {"highway": "secondary"}, "bridge": false, "node_ids": [12063731517, 1776756987, 7878580199, 10288046175, 1635744413, 10288046193, 1776757295, 13381882284, 1776756975, 10288046187], "n_nodes": 10, "stroke": "#999999", "stroke-width": 6, "stroke-opacity": 0.4}}, {"type": "Feature", "geometry": {"type": "LineString", "coordinates": [[11.5716513, 48.1439766], [11.5716595, 48.1439743], [11.5717123, 48.1439591], [11.5718189, 48.1439289]]}, "properties": {"group": "way", "way_id": 1501553732, "tags": {"highway": "secondary"}, "bridge": false, "node_ids": [10288046187, 2489935073, 2489935058, 29559976], "n_nodes": 4, "stroke": "#999999", "stroke-width": 6, "stroke-opacity": 0.4}}, {"type": "Feature", "geometry": {"type": "LineString", "coordinates": [[11.575167, 48.1431045], [11.5752076, 48.1430986], [11.5752952, 48.1430869], [11.5753592, 48.1430764]]}, "properties": {"group": "way", "way_id": 1504329765, "tags": {"highway": "tertiary"}, "bridge": false, "node_ids": [13765955290, 1851458374, 2492630092, 612518275], "n_nodes": 4, "stroke": "#999999", "stroke-width": 6, "stroke-opacity": 0.4}}, {"type": "Feature", "geometry": {"type": "LineString", "coordinates": [[11.5590271, 48.1475353], [11.5590505, 48.1475302], [11.5591418, 48.1475092], [11.559189, 48.1474983], [11.5592305, 48.1474876], [11.5594493, 48.1474319], [11.5598132, 48.1473356], [11.5598793, 48.1473181], [11.5602014, 48.1472328], [11.5604853, 48.1471515], [11.5605477, 48.1471343], [11.5613501, 48.1469176], [11.5614804, 48.1468794], [11.5615901, 48.1468507], [11.5621206, 48.1466937], [11.5625715, 48.1465671], [11.5627479, 48.1465184], [11.5629261, 48.1464692], [11.5635878, 48.1462649]]}, "properties": {"group": "chain", "chain": 0, "n_nodes": 19, "way_ids": [4592386, 49800593, 86969970, 292962064, 310707184, 725976304, 725976306, 967098911, 1131280885], "n_runs": 2, "stroke": "#1f78b4", "stroke-width": 3, "stroke-opacity": 0.8}}, {"type": "Feature", "geometry": {"type": "LineString", "coordinates": [[11.559027099999998, 48.147535299999994], [11.559050499999998, 48.14753019999999], [11.5591418, 48.147509199999995], [11.559189, 48.14749830000001], [11.559230500000002, 48.1474876], [11.5594493, 48.1474319], [11.5598132, 48.147335600000005], [11.5598793, 48.1473181]]}, "properties": {"group": "run", "chain": 0, "run": 0, "length_m": 68, "grid_bearing": 108.9, "max_offset_m": 0.4, "n_nodes": 8, "kept": false, "stroke": "#ff7f00", "stroke-width": 2}}, {"type": "Feature", "geometry": {"type": "LineString", "coordinates": [[11.5598793, 48.1473181], [11.5602014, 48.1472328], [11.5604853, 48.1471515], [11.5605477, 48.14713429999999], [11.561350099999999, 48.146917599999995], [11.5614804, 48.146879399999996], [11.5615901, 48.1468507], [11.562120600000002, 48.1466937], [11.562571499999999, 48.1465671], [11.5627479, 48.14651839999999], [11.5629261, 48.14646919999999], [11.563587799999999, 48.14626489999999]]}, "properties": {"group": "run", "chain": 0, "run": 1, "length_m": 300, "grid_bearing": 111.1, "max_offset_m": 1.9, "n_nodes": 12, "kept": false, "stroke": "#ff7f00", "stroke-width": 2}}, {"type": "Feature", "geometry": {"type": "LineString", "coordinates": [[11.5696973, 48.1446531], [11.5697463, 48.1446005], [11.5697572, 48.1445891], [11.5697903, 48.1445548], [11.5698394, 48.1445153], [11.5698688, 48.1444914], [11.5702204, 48.1443874], [11.5702758, 48.1443715], [11.5704507, 48.1443216], [11.5706088, 48.1442759], [11.5708764, 48.1441994], [11.5709075, 48.1441906], [11.5709916, 48.1441661], [11.5712465, 48.1440952], [11.5713828, 48.1440538], [11.5716513, 48.1439766], [11.5716595, 48.1439743], [11.5717123, 48.1439591], [11.5718189, 48.1439289], [11.5720973, 48.1438534], [11.5721648, 48.1438351], [11.5723754, 48.1437796], [11.5726133, 48.1437157], [11.5728328, 48.1436573], [11.5729127, 48.1436351], [11.5731263, 48.1435782], [11.5733343, 48.1435212], [11.5734972, 48.1434743], [11.5735944, 48.1434471], [11.5736386, 48.1434292], [11.5737157, 48.1434047], [11.5738149, 48.143377], [11.5739124, 48.143353], [11.5744608, 48.1432324], [11.5746666, 48.1431843], [11.5749022, 48.1431433], [11.5751503, 48.143107], [11.575167, 48.1431045], [11.5752076, 48.1430986], [11.5752952, 48.1430869], [11.5753592, 48.1430764], [11.5759107, 48.1429535], [11.5763388, 48.1428652], [11.5765291, 48.1428258], [11.5769579, 48.1427369], [11.5773445, 48.1426568], [11.5774143, 48.1426514], [11.5775391, 48.1426618]]}, "properties": {"group": "chain", "chain": 1, "n_nodes": 48, "way_ids": [25943195, 25943198, 43040852, 43040870, 51787590, 57731066, 151526822, 151878378, 151878388, 160015853, 241324016, 292948255, 380407135, 448672564, 1342612381, 1501553731, 1501553732, 1504329765], "n_runs": 9, "stroke": "#1f78b4", "stroke-width": 3, "stroke-opacity": 0.8}}, {"type": "Feature", "geometry": {"type": "LineString", "coordinates": [[11.5696973, 48.14465309999999], [11.5697463, 48.1446005], [11.569757200000002, 48.144589100000005], [11.5697903, 48.144554799999995]]}, "properties": {"group": "run", "chain": 1, "run": 0, "length_m": 13, "grid_bearing": 145.7, "max_offset_m": 0.0, "n_nodes": 4, "kept": false, "stroke": "#ff7f00", "stroke-width": 2}}, {"type": "Feature", "geometry": {"type": "LineString", "coordinates": [[11.5697903, 48.144554799999995], [11.5698394, 48.1445153], [11.5698688, 48.1444914]]}, "properties": {"group": "run", "chain": 1, "run": 1, "length_m": 9, "grid_bearing": 138.4, "max_offset_m": 0.0, "n_nodes": 3, "kept": false, "stroke": "#ff7f00", "stroke-width": 2}}, {"type": "Feature", "geometry": {"type": "LineString", "coordinates": [[11.5698688, 48.1444914], [11.5702204, 48.144387399999985], [11.5702758, 48.14437149999999], [11.570450700000002, 48.1443216], [11.5706088, 48.144275900000004], [11.5708764, 48.1441994], [11.570907500000002, 48.144190599999995], [11.5709916, 48.1441661], [11.5712465, 48.1440952], [11.5713828, 48.1440538], [11.5716513, 48.1439766], [11.5716595, 48.143974299999996], [11.571712300000002, 48.1439591], [11.5718189, 48.143928900000006], [11.5720973, 48.14385339999999], [11.5721648, 48.14383509999999], [11.5723754, 48.1437796], [11.572613299999999, 48.143715699999994], [11.5728328, 48.14365730000001], [11.5729127, 48.14363509999998], [11.573126299999998, 48.1435782], [11.5733343, 48.14352120000001], [11.573497199999998, 48.1434743], [11.5735944, 48.1434471], [11.5736386, 48.14342919999999]]}, "properties": {"group": "run", "chain": 1, "run": 2, "length_m": 304, "grid_bearing": 110.9, "max_offset_m": 1.3, "n_nodes": 25, "kept": false, "stroke": "#ff7f00", "stroke-width": 2}}, {"type": "Feature", "geometry": {"type": "LineString", "coordinates": [[11.5736386, 48.14342919999999], [11.573715700000001, 48.14340469999999], [11.573814899999999, 48.14337699999999]]}, "properties": {"group": "run", "chain": 1, "run": 3, "length_m": 14, "grid_bearing": 111.9, "max_offset_m": 0.2, "n_nodes": 3, "kept": false, "stroke": "#ff7f00", "stroke-width": 2}}, {"type": "Feature", "geometry": {"type": "LineString", "coordinates": [[11.573814899999999, 48.14337699999999], [11.573912399999998, 48.143353000000005], [11.574460799999999, 48.1432324], [11.574666599999999, 48.143184299999994]]}, "properties": {"group": "run", "chain": 1, "run": 4, "length_m": 67, "grid_bearing": 106.8, "max_offset_m": 0.2, "n_nodes": 4, "kept": false, "stroke": "#ff7f00", "stroke-width": 2}}, {"type": "Feature", "geometry": {"type": "LineString", "coordinates": [[11.574666599999999, 48.143184299999994], [11.574902199999999, 48.143143299999984], [11.575150299999999, 48.143107], [11.575167, 48.1431045], [11.5752076, 48.14309860000001], [11.5752952, 48.1430869], [11.5753592, 48.143076399999984]]}, "properties": {"group": "run", "chain": 1, "run": 5, "length_m": 53, "grid_bearing": 101.2, "max_offset_m": 0.5, "n_nodes": 7, "kept": false, "stroke": "#ff7f00", "stroke-width": 2}}, {"type": "Feature", "geometry": {"type": "LineString", "coordinates": [[11.5753592, 48.143076399999984], [11.575910700000001, 48.14295349999999], [11.5763388, 48.142865199999996], [11.5765291, 48.1428258], [11.5769579, 48.1427369], [11.5773445, 48.1426568]]}, "properties": {"group": "run", "chain": 1, "run": 6, "length_m": 155, "grid_bearing": 105.6, "max_offset_m": 0.7, "n_nodes": 6, "kept": false, "stroke": "#ff7f00", "stroke-width": 2}}, {"type": "Feature", "geometry": {"type": "LineString", "coordinates": [[11.5773445, 48.1426568], [11.577414299999997, 48.14265139999999]]}, "properties": {"group": "run", "chain": 1, "run": 7, "length_m": 5, "grid_bearing": 94.7, "max_offset_m": 0.0, "n_nodes": 2, "kept": false, "stroke": "#ff7f00", "stroke-width": 2}}, {"type": "Feature", "geometry": {"type": "LineString", "coordinates": [[11.577414299999997, 48.14265139999999], [11.5775391, 48.14266179999999]]}, "properties": {"group": "run", "chain": 1, "run": 8, "length_m": 9, "grid_bearing": 81.0, "max_offset_m": 0.0, "n_nodes": 2, "kept": false, "stroke": "#ff7f00", "stroke-width": 2}}, {"type": "Feature", "geometry": {"type": "LineString", "coordinates": [[11.5695432, 48.1444337], [11.5696736, 48.1444717], [11.569751, 48.1444859], [11.569791, 48.1444887], [11.5698215, 48.1444897], [11.5698688, 48.1444914]]}, "properties": {"group": "chain", "chain": 2, "n_nodes": 6, "way_ids": [28019890], "n_runs": 3, "stroke": "#1f78b4", "stroke-width": 3, "stroke-opacity": 0.8}}, {"type": "Feature", "geometry": {"type": "LineString", "coordinates": [[11.5695432, 48.14443369999999], [11.5696736, 48.1444717]]}, "properties": {"group": "run", "chain": 2, "run": 0, "length_m": 11, "grid_bearing": 64.6, "max_offset_m": 0.0, "n_nodes": 2, "kept": false, "stroke": "#ff7f00", "stroke-width": 2}}, {"type": "Feature", "geometry": {"type": "LineString", "coordinates": [[11.5696736, 48.1444717], [11.569751, 48.14448589999999]]}, "properties": {"group": "run", "chain": 2, "run": 1, "length_m": 6, "grid_bearing": 72.8, "max_offset_m": 0.0, "n_nodes": 2, "kept": false, "stroke": "#ff7f00", "stroke-width": 2}}, {"type": "Feature", "geometry": {"type": "LineString", "coordinates": [[11.569751, 48.14448589999999], [11.569791, 48.14448869999999], [11.5698215, 48.1444897], [11.5698688, 48.1444914]]}, "properties": {"group": "run", "chain": 2, "run": 2, "length_m": 9, "grid_bearing": 84.1, "max_offset_m": 0.1, "n_nodes": 4, "kept": false, "stroke": "#ff7f00", "stroke-width": 2}}, {"type": "Feature", "geometry": {"type": "LineString", "coordinates": [[11.5687924, 48.1449448], [11.5686464, 48.1449046], [11.568573, 48.1448935], [11.5684885, 48.1448808]]}, "properties": {"group": "chain", "chain": 3, "n_nodes": 4, "way_ids": [28019891], "n_runs": 2, "stroke": "#1f78b4", "stroke-width": 3, "stroke-opacity": 0.8}}, {"type": "Feature", "geometry": {"type": "LineString", "coordinates": [[11.5687924, 48.14494479999999], [11.5686464, 48.144904600000004]]}, "properties": {"group": "run", "chain": 3, "run": 0, "length_m": 12, "grid_bearing": 245.7, "max_offset_m": 0.0, "n_nodes": 2, "kept": false, "stroke": "#ff7f00", "stroke-width": 2}}, {"type": "Feature", "geometry": {"type": "LineString", "coordinates": [[11.5686464, 48.144904600000004], [11.568572999999999, 48.144893499999995], [11.5684885, 48.1448808]]}, "properties": {"group": "run", "chain": 3, "run": 1, "length_m": 12, "grid_bearing": 255.4, "max_offset_m": 0.0, "n_nodes": 3, "kept": false, "stroke": "#ff7f00", "stroke-width": 2}}, {"type": "Feature", "geometry": {"type": "LineString", "coordinates": [[11.5686363, 48.1447191], [11.5685863, 48.144778], [11.5685689, 48.1447985], [11.5684885, 48.1448808], [11.567794, 48.1450757], [11.567729, 48.1450939], [11.567365, 48.1451947], [11.5671222, 48.1452639], [11.5667909, 48.1453592], [11.566683, 48.1453899], [11.5666032, 48.1454126]]}, "properties": {"group": "chain", "chain": 4, "n_nodes": 11, "way_ids": [51787588, 51787589, 968751243], "n_runs": 2, "stroke": "#1f78b4", "stroke-width": 3, "stroke-opacity": 0.8}}, {"type": "Feature", "geometry": {"type": "LineString", "coordinates": [[11.5686363, 48.1447191], [11.5685863, 48.144777999999995], [11.5685689, 48.14479849999999], [11.5684885, 48.1448808]]}, "properties": {"group": "run", "chain": 4, "run": 0, "length_m": 21, "grid_bearing": 326.6, "max_offset_m": 0.3, "n_nodes": 4, "kept": false, "stroke": "#ff7f00", "stroke-width": 2}}, {"type": "Feature", "geometry": {"type": "LineString", "coordinates": [[11.5684885, 48.1448808], [11.567794, 48.1450757], [11.567729, 48.1450939], [11.567365, 48.14519469999999], [11.567122200000002, 48.1452639], [11.5667909, 48.1453592], [11.566683000000001, 48.1453899], [11.5666032, 48.1454126]]}, "properties": {"group": "run", "chain": 4, "run": 1, "length_m": 152, "grid_bearing": 290.9, "max_offset_m": 0.3, "n_nodes": 8, "kept": false, "stroke": "#ff7f00", "stroke-width": 2}}]}