{"type": "FeatureCollection", "features": [{"type": "Feature", "geometry": {"type": "LineString", "coordinates": [[11.5944693, 48.1418543], [11.5943031, 48.1418857], [11.5936828, 48.1420027], [11.5936658, 48.1420063], [11.5934067, 48.1420689]]}, "properties": {"group": "way", "way_id": 18959384, "tags": {"highway": "secondary"}, "bridge": false, "node_ids": [1954435, 8260417569, 735102756, 3769568289, 28096182], "n_nodes": 5, "stroke": "#999999", "stroke-width": 6, "stroke-opacity": 0.4}}, {"type": "Feature", "geometry": {"type": "LineString", "coordinates": [[11.5989968, 48.1409312], [11.5987739, 48.1410166], [11.5987475, 48.1410292]]}, "properties": {"group": "way", "way_id": 24680710, "tags": {"highway": "secondary"}, "bridge": false, "node_ids": [1954922, 1020993698, 12512837972], "n_nodes": 3, "stroke": "#999999", "stroke-width": 6, "stroke-opacity": 0.4}}, {"type": "Feature", "geometry": {"type": "LineString", "coordinates": [[11.5873865, 48.143297], [11.5873334, 48.1433101]]}, "properties": {"group": "way", "way_id": 31159465, "tags": {"highway": "secondary"}, "bridge": false, "node_ids": [28096036, 20833470], "n_nodes": 2, "stroke": "#999999", "stroke-width": 6, "stroke-opacity": 0.4}}, {"type": "Feature", "geometry": {"type": "LineString", "coordinates": [[11.5885034, 48.1430748], [11.5884888, 48.1430779], [11.5884491, 48.1430858], [11.5883143, 48.1431136], [11.5878202, 48.1432116], [11.5878031, 48.1432151]]}, "properties": {"group": "way", "way_id": 31159467, "tags": {"highway": "secondary"}, "bridge": false, "node_ids": [564568, 1414398831, 1414398832, 2847090716, 735102762, 4424494107], "n_nodes": 6, "stroke": "#999999", "stroke-width": 6, "stroke-opacity": 0.4}}, {"type": "Feature", "geometry": {"type": "LineString", "coordinates": [[11.5896479, 48.1428347], [11.5893111, 48.1429026], [11.5887265, 48.1430317], [11.5885034, 48.1430748]]}, "properties": {"group": "way", "way_id": 31159471, "tags": {"highway": "secondary"}, "bridge": false, "node_ids": [13055847836, 735118965, 638978134, 564568], "n_nodes": 4, "stroke": "#999999", "stroke-width": 6, "stroke-opacity": 0.4}}, {"type": "Feature", "geometry": {"type": "LineString", "coordinates": [[11.6014314, 48.140441], [11.6006313, 48.1406025], [11.6002184, 48.1406874], [11.6001517, 48.140701], [11.6001161, 48.1407081], [11.6000964, 48.1407121]]}, "properties": {"group": "way", "way_id": 31173021, "tags": {"highway": "secondary"}, "bridge": false, "node_ids": [564533, 735102752, 3712021222, 2286931349, 1688589111, 335664152], "n_nodes": 6, "stroke": "#999999", "stroke-width": 6, "stroke-opacity": 0.4}}, {"type": "Feature", "geometry": {"type": "LineString", "coordinates": [[11.6000964, 48.1407121], [11.6000769, 48.1407162], [11.5999688, 48.1407359], [11.5989968, 48.1409312]]}, "properties": {"group": "way", "way_id": 31173302, "tags": {"highway": "secondary"}, "bridge": false, "node_ids": [335664152, 1688589113, 3712021223, 1954922], "n_nodes": 4, "stroke": "#999999", "stroke-width": 6, "stroke-opacity": 0.4}}, {"type": "Feature", "geometry": {"type": "LineString", "coordinates": [[11.620019, 48.1381124], [11.619808, 48.1380961], [11.6197421, 48.1380894], [11.6194326, 48.1380849], [11.6191939, 48.1380792]]}, "properties": {"group": "way", "way_id": 31175345, "tags": {"highway": "secondary"}, "bridge": false, "node_ids": [28096910, 11061386000, 3489915211, 247682442, 3225495670], "n_nodes": 5, "stroke": "#999999", "stroke-width": 6, "stroke-opacity": 0.4}}, {"type": "Feature", "geometry": {"type": "LineString", "coordinates": [[11.6076575, 48.1389695], [11.6075516, 48.1390104], [11.6075111, 48.1390263], [11.6074744, 48.1390432], [11.6074282, 48.139067], [11.607385, 48.1390941], [11.6070573, 48.1393329]]}, "properties": {"group": "way", "way_id": 31175540, "tags": {"highway": "secondary"}, "bridge": false, "node_ids": [564512, 2213493619, 4678580645, 1078859913, 4676307279, 1020909813, 21118772], "n_nodes": 7, "stroke": "#999999", "stroke-width": 6, "stroke-opacity": 0.4}}, {"type": "Feature", "geometry": {"type": "LineString", "coordinates": [[11.5948227, 48.1417808], [11.5946471, 48.1418162], [11.5944693, 48.1418543]]}, "properties": {"group": "way", "way_id": 32735993, "tags": {"highway": "secondary"}, "bridge": false, "node_ids": [368348662, 419161899, 1954435], "n_nodes": 3, "stroke": "#999999", "stroke-width": 6, "stroke-opacity": 0.4}}, {"type": "Feature", "geometry": {"type": "LineString", "coordinates": [[11.6042863, 48.139883], [11.6038294, 48.1399651]]}, "properties": {"group": "way", "way_id": 32736022, "tags": {"highway": "secondary"}, "bridge": false, "node_ids": [2965076819, 13275729751], "n_nodes": 2, "stroke": "#999999", "stroke-width": 6, "stroke-opacity": 0.4}}, {"type": "Feature", "geometry": {"type": "LineString", "coordinates": [[11.5986324, 48.141084], [11.5986267, 48.141088], [11.5986072, 48.1411018], [11.5985719, 48.1411188], [11.5985433, 48.1411273], [11.5985149, 48.1411318]]}, "properties": {"group": "way", "way_id": 51776170, "tags": {"highway": "secondary"}, "bridge": false, "node_ids": [564537, 12512837967, 5469438394, 5469438397, 12512837968, 21677825], "n_nodes": 6, "stroke": "#999999", "stroke-width": 6, "stroke-opacity": 0.4}}, {"type": "Feature", "geometry": {"type": "LineString", "coordinates": [[11.5960614, 48.1417486], [11.5959912, 48.1416859], [11.595906, 48.1416437], [11.595871, 48.1416358], [11.5957809, 48.1416154], [11.5956595, 48.1416118]]}, "properties": {"group": "way", "way_id": 51776184, "tags": {"highway": "secondary"}, "bridge": false, "node_ids": [564559, 1810145271, 1411558215, 9026237886, 564562, 8689973050], "n_nodes": 6, "stroke": "#999999", "stroke-width": 6, "stroke-opacity": 0.4}}, {"type": "Feature", "geometry": {"type": "LineString", "coordinates": [[11.5980869, 48.1409989], [11.5984189, 48.1409321]]}, "properties": {"group": "way", "way_id": 51776538, "tags": {"highway": "secondary"}, "bridge": false, "node_ids": [248047314, 248574696], "n_nodes": 2, "stroke": "#999999", "stroke-width": 6, "stroke-opacity": 0.4}}, {"type": "Feature", "geometry": {"type": "LineString", "coordinates": [[11.6228814, 48.1383084], [11.6228284, 48.1383046], [11.6215897, 48.1382166], [11.6215033, 48.1382111], [11.6213545, 48.1382016], [11.6202274, 48.1381297]]}, "properties": {"group": "way", "way_id": 53259790, "tags": {"highway": "secondary"}, "bridge": false, "node_ids": [673918548, 10829809886, 1937928562, 13895305877, 13895285917, 3225495671], "n_nodes": 6, "stroke": "#999999", "stroke-width": 6, "stroke-opacity": 0.4}}, {"type": "Feature", "geometry": {"type": "LineString", "coordinates": [[11.6077923, 48.1389518], [11.6076575, 48.1389695]]}, "properties": {"group": "way", "way_id": 53442538, "tags": {"highway": "secondary"}, "bridge": false, "node_ids": [592569762, 564512], "n_nodes": 2, "stroke": "#999999", "stroke-width": 6, "stroke-opacity": 0.4}}, {"type": "Feature", "geometry": {"type": "LineString", "coordinates": [[11.598175, 48.1411938], [11.5975489, 48.1413172]]}, "properties": {"group": "way", "way_id": 57830998, "tags": {"highway": "secondary"}, "bridge": false, "node_ids": [248791735, 248791885], "n_nodes": 2, "stroke": "#999999", "stroke-width": 6, "stroke-opacity": 0.4}}, {"type": "Feature", "geometry": {"type": "LineString", "coordinates": [[11.6146501, 48.1381691], [11.6145013, 48.1381749], [11.6144243, 48.1381779], [11.6130899, 48.138245]]}, "properties": {"group": "way", "way_id": 78036567, "tags": {"highway": "secondary"}, "bridge": false, "node_ids": [564163, 918868206, 3489915213, 2039393], "n_nodes": 4, "stroke": "#999999", "stroke-width": 6, "stroke-opacity": 0.4}}, {"type": "Feature", "geometry": {"type": "LineString", "coordinates": [[11.597289, 48.1414026], [11.5972325, 48.1414397], [11.5971914, 48.1414704], [11.5971486, 48.1415231], [11.5971341, 48.1415565], [11.597118, 48.1416055], [11.597118, 48.1416523], [11.5971285, 48.1417088], [11.5971598, 48.1418206], [11.5972632, 48.1421378], [11.5972745, 48.1421991], [11.5972746, 48.1422423], [11.5972423, 48.1423202], [11.5971946, 48.1423849], [11.5971287, 48.1424393], [11.5970279, 48.1424908], [11.5969517, 48.1425123], [11.5968328, 48.1425287], [11.596727, 48.1425301], [11.5966299, 48.1425148], [11.5965373, 48.1424859], [11.5964342, 48.1424251], [11.5963994, 48.1423891], [11.5963625, 48.1423508], [11.5963235, 48.1422901], [11.5962538, 48.1421178], [11.5961232, 48.1418461], [11.5960614, 48.1417486]]}, "properties": {"group": "way", "way_id": 96396069, "tags": {"highway": "secondary"}, "bridge": false, "node_ids": [564542, 7067355521, 1810145266, 248792781, 1810145270, 7067355520, 564541, 7067355519, 1020993719, 564540, 7067355522, 248792903, 1810145274, 1810145275, 564544, 248792902, 1810145276, 564547, 1810145277, 248792901, 564551, 248792900, 4322350342, 564555, 7067355518, 1810145273, 1810145272, 564559], "n_nodes": 28, "stroke": "#999999", "stroke-width": 6, "stroke-opacity": 0.4}}, {"type": "Feature", "geometry": {"type": "LineString", "coordinates": [[11.58709, 48.1433319], [11.587185, 48.143323], [11.5873334, 48.1433101]]}, "properties": {"group": "way", "way_id": 145431467, "tags": {"highway": "secondary"}, "bridge": false, "node_ids": [20833471, 2649656756, 20833470], "n_nodes": 3, "stroke": "#999999", "stroke-width": 6, "stroke-opacity": 0.4}}, {"type": "Feature", "geometry": {"type": "LineString", "coordinates": [[11.5873334, 48.1433101], [11.5872088, 48.1433528], [11.5871804, 48.1433627]]}, "properties": {"group": "way", "way_id": 145431468, "tags": {"highway": "secondary"}, "bridge": false, "node_ids": [20833470, 2649656757, 564575], "n_nodes": 3, "stroke": "#999999", "stroke-width": 6, "stroke-opacity": 0.4}}, {"type": "Feature", "geometry": {"type": "LineString", "coordinates": [[11.5871804, 48.1433627], [11.5867141, 48.1434518], [11.5865239, 48.1434858], [11.5863397, 48.1435195], [11.5859272, 48.1436032], [11.5855289, 48.1436839], [11.5851243, 48.1437654], [11.5845891, 48.1438734]]}, "properties": {"group": "way", "way_id": 145431469, "tags": {"highway": "secondary"}, "bridge": false, "node_ids": [564575, 2649656759, 11233213848, 11233213850, 2649656760, 11877252724, 11877252723, 20833464], "n_nodes": 8, "stroke": "#999999", "stroke-width": 6, "stroke-opacity": 0.4}}, {"type": "Feature", "geometry": {"type": "LineString", "coordinates": [[11.5845599, 48.1438079], [11.5852148, 48.1436753], [11.5858877, 48.1435418], [11.5861003, 48.1435012], [11.5863216, 48.1434617], [11.5867748, 48.1433848], [11.58709, 48.1433319]]}, "properties": {"group": "way", "way_id": 145431470, "tags": {"highway": "secondary"}, "bridge": false, "node_ids": [20833465, 11877252725, 1588470288, 11877252732, 11233213849, 2649656758, 20833471], "n_nodes": 7, "stroke": "#999999", "stroke-width": 6, "stroke-opacity": 0.4}}, {"type": "Feature", "geometry": {"type": "LineString", "coordinates": [[11.5921713, 48.1423367], [11.5920764, 48.1423533], [11.5919916, 48.1423711], [11.5918904, 48.1423908], [11.590508, 48.1426613]]}, "properties": {"group": "way", "way_id": 146234214, "tags": {"highway": "secondary"}, "bridge": false, "node_ids": [564566, 13103720843, 13103720837, 13103720848, 344597896], "n_nodes": 5, "stroke": "#999999", "stroke-width": 6, "stroke-opacity": 0.4}}, {"type": "Feature", "geometry": {"type": "LineString", "coordinates": [[11.5956595, 48.1416118], [11.5957432, 48.1415519], [11.5957969, 48.1415087], [11.5958494, 48.1414422], [11.5958799, 48.1413652], [11.5958592, 48.1412633], [11.5956224, 48.1407489], [11.5956058, 48.1406589], [11.5956222, 48.1405805], [11.5956859, 48.1404815], [11.5957534, 48.1404266], [11.5958263, 48.1403894], [11.5959027, 48.1403619], [11.5959779, 48.1403461], [11.5961082, 48.1403413], [11.5962491, 48.140344], [11.5963898, 48.1403813], [11.5964687, 48.1404273], [11.596536, 48.1404754], [11.5966131, 48.1406036], [11.5968486, 48.141029], [11.5968817, 48.1410646], [11.5969244, 48.1410963], [11.5969672, 48.1411189], [11.5970107, 48.1411356], [11.5970728, 48.1411518], [11.5971244, 48.1411614]]}, "properties": {"group": "way", "way_id": 146234215, "tags": {"highway": "secondary"}, "bridge": false, "node_ids": [8689973050, 1595101041, 1595101038, 1810145265, 1595101034, 1810145260, 1595101003, 1595101001, 1595100995, 1595100994, 1810145247, 1595100988, 1810145246, 1595100967, 1810145245, 1595100962, 1595100971, 1810145248, 1595100991, 1595100998, 1595101005, 1810145252, 1595101008, 1810145254, 1810145255, 1595101026, 7067355517], "n_nodes": 27, "stroke": "#999999", "stroke-width": 6, "stroke-opacity": 0.4}}, {"type": "Feature", "geometry": {"type": "LineString", "coordinates": [[11.6044545, 48.1398547], [11.6046615, 48.1397866], [11.6052477, 48.139712]]}, "properties": {"group": "way", "way_id": 146630737, "tags": {"highway": "secondary"}, "bridge": false, "node_ids": [564528, 2965076817, 1078912689], "n_nodes": 3, "stroke": "#999999", "stroke-width": 6, "stroke-opacity": 0.4}}, {"type": "Feature", "geometry": {"type": "LineString", "coordinates": [[11.6021075, 48.1403004], [11.6014314, 48.140441]]}, "properties": {"group": "way", "way_id": 147776159, "tags": {"highway": "secondary"}, "bridge": false, "node_ids": [28096918, 564533], "n_nodes": 2, "stroke": "#999999", "stroke-width": 6, "stroke-opacity": 0.4}}, {"type": "Feature", "geometry": {"type": "LineString", "coordinates": [[11.6051698, 48.1397998], [11.6046735, 48.1398556], [11.6044545, 48.1398547]]}, "properties": {"group": "way", "way_id": 157653355, "tags": {"highway": "secondary"}, "bridge": false, "node_ids": [13055847830, 2965076818, 564528], "n_nodes": 3, "stroke": "#999999", "stroke-width": 6, "stroke-opacity": 0.4}}, {"type": "Feature", "geometry": {"type": "LineString", "coordinates": [[11.6064889, 48.139545], [11.6065438, 48.1395265], [11.6065964, 48.1395048], [11.6066223, 48.1394926]]}, "properties": {"group": "way", "way_id": 173376694, "tags": {"highway": "secondary"}, "bridge": false, "node_ids": [1020933085, 4678580655, 1221676730, 1598988784], "n_nodes": 4, "stroke": "#999999", "stroke-width": 6, "stroke-opacity": 0.4}}, {"type": "Feature", "geometry": {"type": "LineString", "coordinates": [[11.6066223, 48.1394926], [11.6066571, 48.1394748], [11.6066961, 48.1394525], [11.6067355, 48.139427], [11.6069527, 48.1392685], [11.6070881, 48.1391716], [11.6072207, 48.1390756], [11.6072779, 48.1390371], [11.6073005, 48.1390236], [11.6073233, 48.1390124], [11.6073449, 48.1390037], [11.6073686, 48.1389977], [11.6073937, 48.1389925], [11.6074539, 48.1389852], [11.6075556, 48.1389756], [11.6076575, 48.1389695]]}, "properties": {"group": "way", "way_id": 205357854, "tags": {"highway": "secondary"}, "bridge": false, "node_ids": [1598988784, 4678580654, 4676250465, 1598988781, 1890546635, 564515, 5736185932, 4676307280, 4678580646, 4678580643, 1598988780, 4678580644, 4678580647, 1598988779, 2213493594, 564512], "n_nodes": 16, "stroke": "#999999", "stroke-width": 6, "stroke-opacity": 0.4}}, {"type": "Feature", "geometry": {"type": "LineString", "coordinates": [[11.6029582, 48.1401215], [11.6021075, 48.1403004]]}, "properties": {"group": "way", "way_id": 237566515, "tags": {"highway": "secondary"}, "bridge": false, "node_ids": [28096916, 28096918], "n_nodes": 2, "stroke": "#999999", "stroke-width": 6, "stroke-opacity": 0.4}}, {"type": "Feature", "geometry": {"type": "LineString", "coordinates": [[11.6202274, 48.1381297], [11.620161, 48.1381242], [11.620019, 48.1381124]]}, "properties": {"group": "way", "way_id": 316433710, "tags": {"highway": "secondary"}, "bridge": false, "node_ids": [3225495671, 736599927, 28096910], "n_nodes": 3, "stroke": "#999999", "stroke-width": 6, "stroke-opacity": 0.4}}, {"type": "Feature", "geometry": {"type": "LineString", "coordinates": [[11.6117058, 48.1383774], [11.6104269, 48.1385472]]}, "properties": {"group": "way", "way_id": 316433711, "tags": {"highway": "secondary"}, "bridge": false, "node_ids": [28096906, 12512899637], "n_nodes": 2, "stroke": "#999999", "stroke-width": 6, "stroke-opacity": 0.4}}, {"type": "Feature", "geometry": {"type": "LineString", "coordinates": [[11.6174864, 48.1380951], [11.617066, 48.1380991], [11.6166783, 48.1381074]]}, "properties": {"group": "way", "way_id": 316433712, "tags": {"highway": "secondary"}, "bridge": false, "node_ids": [14173318938, 2039383, 12890477036], "n_nodes": 3, "stroke": "#999999", "stroke-width": 6, "stroke-opacity": 0.4}}, {"type": "Feature", "geometry": {"type": "LineString", "coordinates": [[11.5875847, 48.1432576], [11.5873865, 48.143297]]}, "properties": {"group": "way", "way_id": 444992652, "tags": {"highway": "secondary"}, "bridge": false, "node_ids": [4424494106, 28096036], "n_nodes": 2, "stroke": "#999999", "stroke-width": 6, "stroke-opacity": 0.4}}, {"type": "Feature", "geometry": {"type": "LineString", "coordinates": [[11.5878031, 48.1432151], [11.5875847, 48.1432576]]}, "properties": {"group": "way", "way_id": 444992653, "tags": {"highway": "secondary", "bridge": "yes", "layer": "1"}, "bridge": true, "node_ids": [4424494107, 4424494106], "n_nodes": 2, "stroke": "#999999", "stroke-width": 6, "stroke-opacity": 0.4}}, {"type": "Feature", "geometry": {"type": "LineString", "coordinates": [[11.5981685, 48.1409444], [11.5982457, 48.1409298], [11.5983796, 48.140906], [11.5985033, 48.1408974], [11.598689, 48.1409013], [11.5988128, 48.1408948]]}, "properties": {"group": "way", "way_id": 975391124, "tags": {"highway": "cycleway"}, "bridge": false, "node_ids": [1020933173, 1020933088, 1020933091, 1020933178, 6223296865, 8749807844], "n_nodes": 6, "stroke": "#999999", "stroke-width": 6, "stroke-opacity": 0.4}}, {"type": "Feature", "geometry": {"type": "LineString", "coordinates": [[11.5975489, 48.1413172], [11.5973793, 48.1413665], [11.597289, 48.1414026]]}, "properties": {"group": "way", "way_id": 1105728327, "tags": {"highway": "secondary"}, "bridge": false, "node_ids": [248791885, 1020993722, 564542], "n_nodes": 3, "stroke": "#999999", "stroke-width": 6, "stroke-opacity": 0.4}}, {"type": "Feature", "geometry": {"type": "LineString", "coordinates": [[11.5971244, 48.1411614], [11.5971906, 48.1411631], [11.5973035, 48.1411539], [11.5980869, 48.1409989]]}, "properties": {"group": "way", "way_id": 1105728448, "tags": {"highway": "secondary"}, "bridge": false, "node_ids": [7067355517, 1595101030, 248047268, 248047314], "n_nodes": 4, "stroke": "#999999", "stroke-width": 6, "stroke-opacity": 0.4}}, {"type": "Feature", "geometry": {"type": "LineString", "coordinates": [[11.5985285, 48.140919], [11.5986855, 48.1409236], [11.5989968, 48.1409312]]}, "properties": {"group": "way", "way_id": 1192132888, "tags": {"highway": "secondary"}, "bridge": false, "node_ids": [12512837969, 6223296858, 1954922], "n_nodes": 3, "stroke": "#999999", "stroke-width": 6, "stroke-opacity": 0.4}}, {"type": "Feature", "geometry": {"type": "LineString", "coordinates": [[11.5984189, 48.1409321], [11.5984515, 48.1409228], [11.5984863, 48.1409186], [11.5985053, 48.1409177], [11.5985285, 48.140919]]}, "properties": {"group": "way", "way_id": 1352395062, "tags": {"highway": "secondary"}, "bridge": false, "node_ids": [248574696, 5469438396, 5469438395, 1954920, 12512837969], "n_nodes": 5, "stroke": "#999999", "stroke-width": 6, "stroke-opacity": 0.4}}, {"type": "Feature", "geometry": {"type": "LineString", "coordinates": [[11.5987475, 48.1410292], [11.5986324, 48.141084]]}, "properties": {"group": "way", "way_id": 1352395064, "tags": {"highway": "secondary"}, "bridge": false, "node_ids": [12512837972, 564537], "n_nodes": 2, "stroke": "#999999", "stroke-width": 6, "stroke-opacity": 0.4}}, {"type": "Feature", "geometry": {"type": "LineString", "coordinates": [[11.6130899, 48.138245], [11.6124739, 48.1383002], [11.6118467, 48.1383633]]}, "properties": {"group": "way", "way_id": 1352399727, "tags": {"highway": "secondary"}, "bridge": false, "node_ids": [2039393, 2044194510, 2044194512], "n_nodes": 3, "stroke": "#999999", "stroke-width": 6, "stroke-opacity": 0.4}}, {"type": "Feature", "geometry": {"type": "LineString", "coordinates": [[11.6118467, 48.1383633], [11.6117762, 48.1383704], [11.6117058, 48.1383774]]}, "properties": {"group": "way", "way_id": 1352399728, "tags": {"highway": "secondary"}, "bridge": false, "node_ids": [2044194512, 12512899638, 28096906], "n_nodes": 3, "stroke": "#999999", "stroke-width": 6, "stroke-opacity": 0.4}}, {"type": "Feature", "geometry": {"type": "LineString", "coordinates": [[11.6191939, 48.1380792], [11.6186252, 48.1380857], [11.618568, 48.1380857], [11.6184604, 48.1380857]]}, "properties": {"group": "way", "way_id": 1352399729, "tags": {"highway": "secondary"}, "bridge": false, "node_ids": [3225495670, 10730383104, 10730452705, 564165], "n_nodes": 4, "stroke": "#999999", "stroke-width": 6, "stroke-opacity": 0.4}}, {"type": "Feature", "geometry": {"type": "LineString", "coordinates": [[11.6184604, 48.1380857], [11.6183772, 48.1380866]]}, "properties": {"group": "way", "way_id": 1352399730, "tags": {"highway": "secondary"}, "bridge": false, "node_ids": [564165, 3100660746], "n_nodes": 2, "stroke": "#999999", "stroke-width": 6, "stroke-opacity": 0.4}}, {"type": "Feature", "geometry": {"type": "LineString", "coordinates": [[11.6044545, 48.1398547], [11.6042863, 48.139883]]}, "properties": {"group": "way", "way_id": 1352779319, "tags": {"highway": "secondary"}, "bridge": false, "node_ids": [564528, 2965076819], "n_nodes": 2, "stroke": "#999999", "stroke-width": 6, "stroke-opacity": 0.4}}, {"type": "Feature", "geometry": {"type": "LineString", "coordinates": [[11.6070573, 48.1393329], [11.6069178, 48.1394453], [11.6068432, 48.1394992], [11.6067812, 48.1395408], [11.6067151, 48.1395798], [11.6066903, 48.1395928], [11.6066682, 48.139603], [11.6066467, 48.139612], [11.6066181, 48.1396236], [11.6065884, 48.1396331], [11.6065619, 48.1396397]]}, "properties": {"group": "way", "way_id": 1420705730, "tags": {"highway": "secondary"}, "bridge": false, "node_ids": [21118772, 3769568267, 4678580653, 21118771, 3789797794, 4678580650, 4678580652, 4678580651, 2254759228, 4678580648, 1020942868], "n_nodes": 11, "stroke": "#999999", "stroke-width": 6, "stroke-opacity": 0.4}}, {"type": "Feature", "geometry": {"type": "LineString", "coordinates": [[11.6054663, 48.1396857], [11.6061203, 48.1396158], [11.6062563, 48.1395984], [11.6062977, 48.1395917], [11.6063406, 48.1395834], [11.6064003, 48.139569], [11.6064889, 48.139545]]}, "properties": {"group": "way", "way_id": 1420705731, "tags": {"highway": "secondary"}, "bridge": false, "node_ids": [1020933161, 1020933089, 1598988785, 4678580656, 3789797795, 1020933115, 1020933085], "n_nodes": 7, "stroke": "#999999", "stroke-width": 6, "stroke-opacity": 0.4}}, {"type": "Feature", "geometry": {"type": "LineString", "coordinates": [[11.6065619, 48.1396397], [11.60652, 48.1396478], [11.6064911, 48.1396521], [11.6064195, 48.1396611], [11.6063126, 48.1396736]]}, "properties": {"group": "way", "way_id": 1420705732, "tags": {"highway": "secondary"}, "bridge": false, "node_ids": [1020942868, 4678580649, 4676307278, 1020933081, 1020933147], "n_nodes": 5, "stroke": "#999999", "stroke-width": 6, "stroke-opacity": 0.4}}, {"type": "Feature", "geometry": {"type": "LineString", "coordinates": [[11.6057572, 48.1397348], [11.6052973, 48.1397855], [11.6051698, 48.1397998]]}, "properties": {"group": "way", "way_id": 1420705733, "tags": {"highway": "secondary"}, "bridge": false, "node_ids": [13055847829, 1078912535, 13055847830], "n_nodes": 3, "stroke": "#999999", "stroke-width": 6, "stroke-opacity": 0.4}}, {"type": "Feature", "geometry": {"type": "LineString", "coordinates": [[11.593046, 48.1421416], [11.5928997, 48.1421723], [11.5921713, 48.1423367]]}, "properties": {"group": "way", "way_id": 1420705737, "tags": {"highway": "secondary"}, "bridge": false, "node_ids": [13055847834, 13055847835, 564566], "n_nodes": 3, "stroke": "#999999", "stroke-width": 6, "stroke-opacity": 0.4}}, {"type": "Feature", "geometry": {"type": "LineString", "coordinates": [[11.590508, 48.1426613], [11.5896479, 48.1428347]]}, "properties": {"group": "way", "way_id": 1420705738, "tags": {"highway": "secondary"}, "bridge": false, "node_ids": [344597896, 13055847836], "n_nodes": 2, "stroke": "#999999", "stroke-width": 6, "stroke-opacity": 0.4}}, {"type": "Feature", "geometry": {"type": "LineString", "coordinates": [[11.5985149, 48.1411318], [11.598175, 48.1411938]]}, "properties": {"group": "way", "way_id": 1446908698, "tags": {"highway": "secondary"}, "bridge": false, "node_ids": [21677825, 248791735], "n_nodes": 2, "stroke": "#999999", "stroke-width": 6, "stroke-opacity": 0.4}}, {"type": "Feature", "geometry": {"type": "LineString", "coordinates": [[11.6038294, 48.1399651], [11.6034969, 48.1400248]]}, "properties": {"group": "way", "way_id": 1446911899, "tags": {"highway": "secondary"}, "bridge": false, "node_ids": [13275729751, 13275729752], "n_nodes": 2, "stroke": "#999999", "stroke-width": 6, "stroke-opacity": 0.4}}, {"type": "Feature", "geometry": {"type": "LineString", "coordinates": [[11.6052477, 48.139712], [11.6054663, 48.1396857]]}, "properties": {"group": "way", "way_id": 1446911900, "tags": {"highway": "secondary"}, "bridge": false, "node_ids": [1078912689, 1020933161], "n_nodes": 2, "stroke": "#999999", "stroke-width": 6, "stroke-opacity": 0.4}}, {"type": "Feature", "geometry": {"type": "LineString", "coordinates": [[11.6034969, 48.1400248], [11.6029582, 48.1401215]]}, "properties": {"group": "way", "way_id": 1446911901, "tags": {"highway": "secondary"}, "bridge": false, "node_ids": [13275729752, 28096916], "n_nodes": 2, "stroke": "#999999", "stroke-width": 6, "stroke-opacity": 0.4}}, {"type": "Feature", "geometry": {"type": "LineString", "coordinates": [[11.6061155, 48.1396953], [11.6057572, 48.1397348]]}, "properties": {"group": "way", "way_id": 1446912511, "tags": {"highway": "secondary"}, "bridge": false, "node_ids": [13275744777, 13055847829], "n_nodes": 2, "stroke": "#999999", "stroke-width": 6, "stroke-opacity": 0.4}}, {"type": "Feature", "geometry": {"type": "LineString", "coordinates": [[11.6063126, 48.1396736], [11.6061155, 48.1396953]]}, "properties": {"group": "way", "way_id": 1446912512, "tags": {"highway": "secondary"}, "bridge": false, "node_ids": [1020933147, 13275744777], "n_nodes": 2, "stroke": "#999999", "stroke-width": 6, "stroke-opacity": 0.4}}, {"type": "Feature", "geometry": {"type": "LineString", "coordinates": [[11.6098705, 48.1386256], [11.6091162, 48.1387374]]}, "properties": {"group": "way", "way_id": 1459087116, "tags": {"highway": "secondary"}, "bridge": false, "node_ids": [13381642015, 28096904], "n_nodes": 2, "stroke": "#999999", "stroke-width": 6, "stroke-opacity": 0.4}}, {"type": "Feature", "geometry": {"type": "LineString", "coordinates": [[11.6104269, 48.1385472], [11.6102748, 48.1385688]]}, "properties": {"group": "way", "way_id": 1459087117, "tags": {"highway": "secondary"}, "bridge": false, "node_ids": [12512899637, 12512899636], "n_nodes": 2, "stroke": "#999999", "stroke-width": 6, "stroke-opacity": 0.4}}, {"type": "Feature", "geometry": {"type": "LineString", "coordinates": [[11.6102748, 48.1385688], [11.6100532, 48.1385985], [11.6098705, 48.1386256]]}, "properties": {"group": "way", "way_id": 1459087118, "tags": {"highway": "secondary"}, "bridge": false, "node_ids": [12512899636, 1955004, 13381642015], "n_nodes": 3, "stroke": "#999999", "stroke-width": 6, "stroke-opacity": 0.4}}, {"type": "Feature", "geometry": {"type": "LineString", "coordinates": [[11.6091162, 48.1387374], [11.6079773, 48.1389251], [11.6079009, 48.1389377], [11.6077923, 48.1389518]]}, "properties": {"group": "way", "way_id": 1459087119, "tags": {"highway": "secondary"}, "bridge": false, "node_ids": [28096904, 3789797791, 3789797792, 592569762], "n_nodes": 4, "stroke": "#999999", "stroke-width": 6, "stroke-opacity": 0.4}}, {"type": "Feature", "geometry": {"type": "LineString", "coordinates": [[11.6183772, 48.1380866], [11.6182806, 48.1380875], [11.6181566, 48.1380887]]}, "properties": {"group": "way", "way_id": 1459734071, "tags": {"highway": "secondary"}, "bridge": false, "node_ids": [3100660746, 10730383103, 13388025536], "n_nodes": 3, "stroke": "#999999", "stroke-width": 6, "stroke-opacity": 0.4}}, {"type": "Feature", "geometry": {"type": "LineString", "coordinates": [[11.6155984, 48.1381346], [11.6149395, 48.1381577], [11.6148489, 48.1381613], [11.6146501, 48.1381691]]}, "properties": {"group": "way", "way_id": 1500997157, "tags": {"highway": "secondary"}, "bridge": false, "node_ids": [13742022654, 3489915212, 918870219, 564163], "n_nodes": 4, "stroke": "#999999", "stroke-width": 6, "stroke-opacity": 0.4}}, {"type": "Feature", "geometry": {"type": "LineString", "coordinates": [[11.5843509, 48.1436657], [11.5849442, 48.1435646], [11.5850105, 48.1435515], [11.5852955, 48.1434931], [11.5856098, 48.1434247], [11.5856807, 48.1434166], [11.5857559, 48.1434138], [11.5858457, 48.1434177]]}, "properties": {"group": "way", "way_id": 1516038508, "tags": {"highway": "footway"}, "bridge": false, "node_ids": [344335070, 3946157819, 380209942, 380209943, 10844351405, 380209944, 380209945, 392377654], "n_nodes": 8, "stroke": "#999999", "stroke-width": 6, "stroke-opacity": 0.4}}, {"type": "Feature", "geometry": {"type": "LineString", "coordinates": [[11.5934067, 48.1420689], [11.593046, 48.1421416]]}, "properties": {"group": "way", "way_id": 1534202954, "tags": {"highway": "secondary"}, "bridge": false, "node_ids": [28096182, 13055847834], "n_nodes": 2, "stroke": "#999999", "stroke-width": 6, "stroke-opacity": 0.4}}, {"type": "Feature", "geometry": {"type": "LineString", "coordinates": [[11.6164018, 48.1381133], [11.6159073, 48.1381238], [11.6155984, 48.1381346]]}, "properties": {"group": "way", "way_id": 1558116923, "tags": {"highway": "secondary"}, "bridge": false, "node_ids": [14173305813, 564164, 13742022654], "n_nodes": 3, "stroke": "#999999", "stroke-width": 6, "stroke-opacity": 0.4}}, {"type": "Feature", "geometry": {"type": "LineString", "coordinates": [[11.6166783, 48.1381074], [11.6165977, 48.1381091], [11.6164018, 48.1381133]]}, "properties": {"group": "way", "way_id": 1558117035, "tags": {"highway": "secondary"}, "bridge": false, "node_ids": [12890477036, 12890477034, 14173305813], "n_nodes": 3, "stroke": "#999999", "stroke-width": 6, "stroke-opacity": 0.4}}, {"type": "Feature", "geometry": {"type": "LineString", "coordinates": [[11.6181566, 48.1380887], [11.6174864, 48.1380951]]}, "properties": {"group": "way", "way_id": 1558117169, "tags": {"highway": "secondary"}, "bridge": false, "node_ids": [13388025536, 14173318938], "n_nodes": 2, "stroke": "#999999", "stroke-width": 6, "stroke-opacity": 0.4}}, {"type": "Feature", "geometry": {"type": "LineString", "coordinates": [[11.5948227, 48.1417808], [11.5946471, 48.1418162], [11.5944693, 48.1418543], [11.5943031, 48.1418857], [11.5936828, 48.1420027], [11.5936658, 48.1420063], [11.5934067, 48.1420689], [11.593046, 48.1421416], [11.5928997, 48.1421723], [11.5921713, 48.1423367], [11.5920764, 48.1423533], [11.5919916, 48.1423711], [11.5918904, 48.1423908], [11.590508, 48.1426613], [11.5896479, 48.1428347], [11.5893111, 48.1429026], [11.5887265, 48.1430317], [11.5885034, 48.1430748], [11.5884888, 48.1430779], [11.5884491, 48.1430858], [11.5883143, 48.1431136], [11.5878202, 48.1432116], [11.5878031, 48.1432151], [11.5875847, 48.1432576], [11.5873865, 48.143297], [11.5873334, 48.1433101], [11.5872088, 48.1433528], [11.5871804, 48.1433627], [11.5867141, 48.1434518], [11.5865239, 48.1434858], [11.5863397, 48.1435195], [11.5859272, 48.1436032], [11.5855289, 48.1436839], [11.5851243, 48.1437654], [11.5845891, 48.1438734]]}, "properties": {"group": "chain", "chain": 0, "n_nodes": 35, "way_ids": [18959384, 31159465, 31159467, 31159471, 32735993, 145431468, 145431469, 146234214, 444992652, 444992653, 1420705737, 1420705738, 1534202954], "n_runs": 6, "stroke": "#1f78b4", "stroke-width": 3, "stroke-opacity": 0.8}}, {"type": "Feature", "geometry": {"type": "LineString", "coordinates": [[11.5948227, 48.14178079999999], [11.5946471, 48.14181620000001], [11.5944693, 48.14185429999999], [11.5943031, 48.1418857], [11.593682799999998, 48.1420027], [11.593665799999998, 48.14200629999999]]}, "properties": {"group": "run", "chain": 0, "run": 0, "length_m": 90, "grid_bearing": 284.3, "max_offset_m": 0.5, "n_nodes": 6, "kept": false, "stroke": "#ff7f00", "stroke-width": 2}}, {"type": "Feature", "geometry": {"type": "LineString", "coordinates": [[11.593665799999998, 48.14200629999999], [11.5934067, 48.1420689], [11.593046, 48.142141599999995], [11.5928997, 48.1421723], [11.5921713, 48.142336699999994]]}, "properties": {"group": "run", "chain": 0, "run": 1, "length_m": 117, "grid_bearing": 286.3, "max_offset_m": 0.6, "n_nodes": 5, "kept": false, "stroke": "#ff7f00", "stroke-width": 2}}, {"type": "Feature", "geometry": {"type": "LineString", "coordinates": [[11.5921713, 48.142336699999994], [11.592076399999998, 48.142353299999996], [11.5919916, 48.14237109999999], [11.5918904, 48.1423908], [11.590508, 48.1426613], [11.5896479, 48.1428347], [11.5893111, 48.14290259999999]]}, "properties": {"group": "run", "chain": 0, "run": 2, "length_m": 222, "grid_bearing": 284.5, "max_offset_m": 0.5, "n_nodes": 7, "kept": false, "stroke": "#ff7f00", "stroke-width": 2}}, {"type": "Feature", "geometry": {"type": "LineString", "coordinates": [[11.5893111, 48.14290259999999], [11.5887265, 48.143031699999995], [11.5885034, 48.14307480000001], [11.5884888, 48.14307790000001], [11.5884491, 48.1430858], [11.588314299999999, 48.14311359999999], [11.5878202, 48.1432116], [11.587803100000002, 48.1432151], [11.5875847, 48.14325759999999], [11.5873865, 48.14329699999999], [11.5873334, 48.143310099999994]]}, "properties": {"group": "run", "chain": 0, "run": 3, "length_m": 154, "grid_bearing": 285.2, "max_offset_m": 0.9, "n_nodes": 11, "kept": false, "stroke": "#ff7f00", "stroke-width": 2}}, {"type": "Feature", "geometry": {"type": "LineString", "coordinates": [[11.5873334, 48.143310099999994], [11.5872088, 48.143352799999995], [11.5871804, 48.14336269999999]]}, "properties": {"group": "run", "chain": 0, "run": 4, "length_m": 13, "grid_bearing": 295.3, "max_offset_m": 0.0, "n_nodes": 3, "kept": false, "stroke": "#ff7f00", "stroke-width": 2}}, {"type": "Feature", "geometry": {"type": "LineString", "coordinates": [[11.5871804, 48.14336269999999], [11.586714100000002, 48.1434518], [11.5865239, 48.143485799999986], [11.5863397, 48.14351949999999], [11.585927199999999, 48.1436032], [11.585528900000002, 48.143683900000006], [11.5851243, 48.1437654], [11.584589099999999, 48.14387339999999]]}, "properties": {"group": "run", "chain": 0, "run": 5, "length_m": 201, "grid_bearing": 284.5, "max_offset_m": 0.9, "n_nodes": 8, "kept": false, "stroke": "#ff7f00", "stroke-width": 2}}, {"type": "Feature", "geometry": {"type": "LineString", "coordinates": [[11.5989968, 48.1409312], [11.5986855, 48.1409236], [11.5985285, 48.140919], [11.5985053, 48.1409177], [11.5984863, 48.1409186], [11.5984515, 48.1409228], [11.5984189, 48.1409321], [11.5980869, 48.1409989], [11.5973035, 48.1411539], [11.5971906, 48.1411631], [11.5971244, 48.1411614], [11.5970728, 48.1411518], [11.5970107, 48.1411356], [11.5969672, 48.1411189], [11.5969244, 48.1410963], [11.5968817, 48.1410646], [11.5968486, 48.141029], [11.5966131, 48.1406036], [11.596536, 48.1404754], [11.5964687, 48.1404273], [11.5963898, 48.1403813], [11.5962491, 48.140344], [11.5961082, 48.1403413], [11.5959779, 48.1403461], [11.5959027, 48.1403619], [11.5958263, 48.1403894], [11.5957534, 48.1404266], [11.5956859, 48.1404815], [11.5956222, 48.1405805], [11.5956058, 48.1406589], [11.5956224, 48.1407489], [11.5958592, 48.1412633], [11.5958799, 48.1413652], [11.5958494, 48.1414422], [11.5957969, 48.1415087], [11.5957432, 48.1415519], [11.5956595, 48.1416118], [11.5957809, 48.1416154], [11.595871, 48.1416358], [11.595906, 48.1416437], [11.5959912, 48.1416859], [11.5960614, 48.1417486], [11.5961232, 48.1418461], [11.5962538, 48.1421178], [11.5963235, 48.1422901], [11.5963625, 48.1423508], [11.5963994, 48.1423891], [11.5964342, 48.1424251], [11.5965373, 48.1424859], [11.5966299, 48.1425148], [11.596727, 48.1425301], [11.5968328, 48.1425287], [11.5969517, 48.1425123], [11.5970279, 48.1424908], [11.5971287, 48.1424393], [11.5971946, 48.1423849], [11.5972423, 48.1423202], [11.5972746, 48.1422423], [11.5972745, 48.1421991], [11.5972632, 48.1421378], [11.5971598, 48.1418206], [11.5971285, 48.1417088], [11.597118, 48.1416523], [11.597118, 48.1416055], [11.5971341, 48.1415565], [11.5971486, 48.1415231], [11.5971914, 48.1414704], [11.5972325, 48.1414397], [11.597289, 48.1414026], [11.5973793, 48.1413665], [11.5975489, 48.1413172], [11.598175, 48.1411938], [11.5985149, 48.1411318], [11.5985433, 48.1411273], [11.5985719, 48.1411188], [11.5986072, 48.1411018], [11.5986267, 48.141088], [11.5986324, 48.141084], [11.5987475, 48.1410292], [11.5987739, 48.1410166], [11.5989968, 48.1409312], [11.5999688, 48.1407359], [11.6000769, 48.1407162], [11.6000964, 48.1407121], [11.6001161, 48.1407081], [11.6001517, 48.140701], [11.6002184, 48.1406874], [11.6006313, 48.1406025], [11.6014314, 48.140441], [11.6021075, 48.1403004], [11.6029582, 48.1401215], [11.6034969, 48.1400248], [11.6038294, 48.1399651], [11.6042863, 48.139883], [11.6044545, 48.1398547], [11.6046615, 48.1397866], [11.6052477, 48.139712], [11.6054663, 48.1396857], [11.6061203, 48.1396158], [11.6062563, 48.1395984], [11.6062977, 48.1395917], [11.6063406, 48.1395834], [11.6064003, 48.139569], [11.6064889, 48.139545], [11.6065438, 48.1395265], [11.6065964, 48.1395048], [11.6066223, 48.1394926], [11.6066571, 48.1394748], [11.6066961, 48.1394525], [11.6067355, 48.139427], [11.6069527, 48.1392685], [11.6070881, 48.1391716], [11.6072207, 48.1390756], [11.6072779, 48.1390371], [11.6073005, 48.1390236], [11.6073233, 48.1390124], [11.6073449, 48.1390037], [11.6073686, 48.1389977], [11.6073937, 48.1389925], [11.6074539, 48.1389852], [11.6075556, 48.1389756], [11.6076575, 48.1389695], [11.6077923, 48.1389518], [11.6079009, 48.1389377], [11.6079773, 48.1389251], [11.6091162, 48.1387374], [11.6098705, 48.1386256], [11.6100532, 48.1385985], [11.6102748, 48.1385688], [11.6104269, 48.1385472], [11.6117058, 48.1383774], [11.6117762, 48.1383704], [11.6118467, 48.1383633], [11.6124739, 48.1383002], [11.6130899, 48.138245], [11.6144243, 48.1381779], [11.6145013, 48.1381749], [11.6146501, 48.1381691], [11.6148489, 48.1381613], [11.6149395, 48.1381577], [11.6155984, 48.1381346], [11.6159073, 48.1381238], [11.6164018, 48.1381133], [11.6165977, 48.1381091], [11.6166783, 48.1381074], [11.617066, 48.1380991], [11.6174864, 48.1380951], [11.6181566, 48.1380887], [11.6182806, 48.1380875], [11.6183772, 48.1380866], [11.6184604, 48.1380857], [11.618568, 48.1380857], [11.6186252, 48.1380857], [11.6191939, 48.1380792], [11.6194326, 48.1380849], [11.6197421, 48.1380894], [11.619808, 48.1380961], [11.620019, 48.1381124], [11.620161, 48.1381242], [11.6202274, 48.1381297], [11.6213545, 48.1382016], [11.6215033, 48.1382111], [11.6215897, 48.1382166], [11.6228284, 48.1383046], [11.6228814, 48.1383084]]}, "properties": {"group": "chain", "chain": 1, "n_nodes": 165, "way_ids": [24680710, 31173021, 31173302, 31175345, 32736022, 51776170, 51776184, 51776538, 53259790, 53442538, 57830998, 78036567, 96396069, 146234215, 146630737, 147776159, 173376694, 205357854, 237566515, 316433710, 316433711, 316433712, 1105728327, 1105728448, 1192132888, 1352395062, 1352395064, 1352399727, 1352399728, 1352399729, 1352399730, 1352779319, 1420705731, 1446908698, 1446911899, 1446911900, 1446911901, 1459087116, 1459087117, 1459087118, 1459087119, 1459734071, 1500997157, 1558116923, 1558117035, 1558117169], "n_runs": 70, "stroke": "#1f78b4", "stroke-width": 3, "stroke-opacity": 0.8}}, {"type": "Feature", "geometry": {"type": "LineString", "coordinates": [[11.598996799999998, 48.14093119999998], [11.5986855, 48.14092360000001], [11.598528500000002, 48.140919], [11.5985053, 48.14091770000001], [11.5984863, 48.1409186], [11.5984515, 48.1409228]]}, "properties": {"group": "run", "chain": 1, "run": 0, "length_m": 41, "grid_bearing": 266.7, "max_offset_m": 0.7, "n_nodes": 6, "kept": false, "stroke": "#ff7f00", "stroke-width": 2}}, {"type": "Feature", "geometry": {"type": "LineString", "coordinates": [[11.5984515, 48.1409228], [11.5984189, 48.1409321], [11.5980869, 48.14099889999999], [11.597303499999999, 48.14115389999999]]}, "properties": {"group": "run", "chain": 1, "run": 1, "length_m": 89, "grid_bearing": 284.8, "max_offset_m": 0.3, "n_nodes": 4, "kept": false, "stroke": "#ff7f00", "stroke-width": 2}}, {"type": "Feature", "geometry": {"type": "LineString", "coordinates": [[11.597303499999999, 48.14115389999999], [11.5971906, 48.14116309999999]]}, "properties": {"group": "run", "chain": 1, "run": 2, "length_m": 8, "grid_bearing": 275.0, "max_offset_m": 0.0, "n_nodes": 2, "kept": false, "stroke": "#ff7f00", "stroke-width": 2}}, {"type": "Feature", "geometry": {"type": "LineString", "coordinates": [[11.5971906, 48.14116309999999], [11.597124399999998, 48.141161399999994], [11.5970728, 48.1411518], [11.5970107, 48.14113559999999], [11.5969672, 48.14111889999999], [11.5969244, 48.1410963], [11.5968817, 48.1410646], [11.5968486, 48.141028999999996]]}, "properties": {"group": "run", "chain": 1, "run": 3, "length_m": 30, "grid_bearing": 237.7, "max_offset_m": 4.2, "n_nodes": 8, "kept": false, "stroke": "#ff7f00", "stroke-width": 2}}, {"type": "Feature", "geometry": {"type": "LineString", "coordinates": [[11.5968486, 48.141028999999996], [11.5966131, 48.14060359999999], [11.596536, 48.14047540000001]]}, "properties": {"group": "run", "chain": 1, "run": 4, "length_m": 66, "grid_bearing": 198.8, "max_offset_m": 0.3, "n_nodes": 3, "kept": false, "stroke": "#ff7f00", "stroke-width": 2}}, {"type": "Feature", "geometry": {"type": "LineString", "coordinates": [[11.596536, 48.14047540000001], [11.5964687, 48.1404273]]}, "properties": {"group": "run", "chain": 1, "run": 5, "length_m": 7, "grid_bearing": 221.2, "max_offset_m": 0.0, "n_nodes": 2, "kept": false, "stroke": "#ff7f00", "stroke-width": 2}}, {"type": "Feature", "geometry": {"type": "LineString", "coordinates": [[11.5964687, 48.1404273], [11.5963898, 48.14038130000001]]}, "properties": {"group": "run", "chain": 1, "run": 6, "length_m": 8, "grid_bearing": 227.0, "max_offset_m": 0.0, "n_nodes": 2, "kept": false, "stroke": "#ff7f00", "stroke-width": 2}}, {"type": "Feature", "geometry": {"type": "LineString", "coordinates": [[11.5963898, 48.14038130000001], [11.596249099999998, 48.140343999999985]]}, "properties": {"group": "run", "chain": 1, "run": 7, "length_m": 11, "grid_bearing": 246.5, "max_offset_m": 0.0, "n_nodes": 2, "kept": false, "stroke": "#ff7f00", "stroke-width": 2}}, {"type": "Feature", "geometry": {"type": "LineString", "coordinates": [[11.596249099999998, 48.140343999999985], [11.596108199999998, 48.140341299999996]]}, "properties": {"group": "run", "chain": 1, "run": 8, "length_m": 10, "grid_bearing": 266.4, "max_offset_m": 0.0, "n_nodes": 2, "kept": false, "stroke": "#ff7f00", "stroke-width": 2}}, {"type": "Feature", "geometry": {"type": "LineString", "coordinates": [[11.596108199999998, 48.140341299999996], [11.5959779, 48.140346099999995]]}, "properties": {"group": "run", "chain": 1, "run": 9, "length_m": 10, "grid_bearing": 271.2, "max_offset_m": 0.0, "n_nodes": 2, "kept": false, "stroke": "#ff7f00", "stroke-width": 2}}, {"type": "Feature", "geometry": {"type": "LineString", "coordinates": [[11.5959779, 48.140346099999995], [11.5959027, 48.140361899999995]]}, "properties": {"group": "run", "chain": 1, "run": 10, "length_m": 6, "grid_bearing": 285.5, "max_offset_m": 0.0, "n_nodes": 2, "kept": false, "stroke": "#ff7f00", "stroke-width": 2}}, {"type": "Feature", "geometry": {"type": "LineString", "coordinates": [[11.5959027, 48.140361899999995], [11.5958263, 48.14038939999999]]}, "properties": {"group": "run", "chain": 1, "run": 11, "length_m": 6, "grid_bearing": 296.3, "max_offset_m": 0.0, "n_nodes": 2, "kept": false, "stroke": "#ff7f00", "stroke-width": 2}}, {"type": "Feature", "geometry": {"type": "LineString", "coordinates": [[11.5958263, 48.14038939999999], [11.5957534, 48.14042659999999]]}, "properties": {"group": "run", "chain": 1, "run": 12, "length_m": 7, "grid_bearing": 305.4, "max_offset_m": 0.0, "n_nodes": 2, "kept": false, "stroke": "#ff7f00", "stroke-width": 2}}, {"type": "Feature", "geometry": {"type": "LineString", "coordinates": [[11.5957534, 48.14042659999999], [11.5956859, 48.1404815]]}, "properties": {"group": "run", "chain": 1, "run": 13, "length_m": 8, "grid_bearing": 318.6, "max_offset_m": 0.0, "n_nodes": 2, "kept": false, "stroke": "#ff7f00", "stroke-width": 2}}, {"type": "Feature", "geometry": {"type": "LineString", "coordinates": [[11.5956859, 48.1404815], [11.5956222, 48.140580500000006]]}, "properties": {"group": "run", "chain": 1, "run": 14, "length_m": 12, "grid_bearing": 334.8, "max_offset_m": 0.0, "n_nodes": 2, "kept": false, "stroke": "#ff7f00", "stroke-width": 2}}, {"type": "Feature", "geometry": {"type": "LineString", "coordinates": [[11.5956222, 48.140580500000006], [11.5956058, 48.1406589]]}, "properties": {"group": "run", "chain": 1, "run": 15, "length_m": 9, "grid_bearing": 350.1, "max_offset_m": 0.0, "n_nodes": 2, "kept": false, "stroke": "#ff7f00", "stroke-width": 2}}, {"type": "Feature", "geometry": {"type": "LineString", "coordinates": [[11.5956058, 48.1406589], [11.5956224, 48.1407489]]}, "properties": {"group": "run", "chain": 1, "run": 16, "length_m": 10, "grid_bearing": 5.1, "max_offset_m": 0.0, "n_nodes": 2, "kept": false, "stroke": "#ff7f00", "stroke-width": 2}}, {"type": "Feature", "geometry": {"type": "LineString", "coordinates": [[11.5956224, 48.1407489], [11.5958592, 48.141263300000006]]}, "properties": {"group": "run", "chain": 1, "run": 17, "length_m": 60, "grid_bearing": 15.2, "max_offset_m": 0.0, "n_nodes": 2, "kept": false, "stroke": "#ff7f00", "stroke-width": 2}}, {"type": "Feature", "geometry": {"type": "LineString", "coordinates": [[11.5958592, 48.141263300000006], [11.5958799, 48.14136520000001]]}, "properties": {"group": "run", "chain": 1, "run": 18, "length_m": 11, "grid_bearing": 5.8, "max_offset_m": 0.0, "n_nodes": 2, "kept": false, "stroke": "#ff7f00", "stroke-width": 2}}, {"type": "Feature", "geometry": {"type": "LineString", "coordinates": [[11.5958799, 48.14136520000001], [11.5958494, 48.1414422]]}, "properties": {"group": "run", "chain": 1, "run": 19, "length_m": 9, "grid_bearing": 343.2, "max_offset_m": 0.0, "n_nodes": 2, "kept": false, "stroke": "#ff7f00", "stroke-width": 2}}, {"type": "Feature", "geometry": {"type": "LineString", "coordinates": [[11.5958494, 48.1414422], [11.5957969, 48.141508699999996]]}, "properties": {"group": "run", "chain": 1, "run": 20, "length_m": 8, "grid_bearing": 330.2, "max_offset_m": 0.0, "n_nodes": 2, "kept": false, "stroke": "#ff7f00", "stroke-width": 2}}, {"type": "Feature", "geometry": {"type": "LineString", "coordinates": [[11.5957969, 48.141508699999996], [11.5957432, 48.1415519], [11.5956595, 48.14161179999999]]}, "properties": {"group": "run", "chain": 1, "run": 21, "length_m": 15, "grid_bearing": 316.3, "max_offset_m": 0.2, "n_nodes": 3, "kept": false, "stroke": "#ff7f00", "stroke-width": 2}}, {"type": "Feature", "geometry": {"type": "LineString", "coordinates": [[11.5956595, 48.14161179999999], [11.5957809, 48.1416154]]}, "properties": {"group": "run", "chain": 1, "run": 22, "length_m": 9, "grid_bearing": 85.5, "max_offset_m": 0.0, "n_nodes": 2, "kept": false, "stroke": "#ff7f00", "stroke-width": 2}}, {"type": "Feature", "geometry": {"type": "LineString", "coordinates": [[11.5957809, 48.1416154], [11.595871, 48.14163580000001], [11.595906, 48.141643699999996]]}, "properties": {"group": "run", "chain": 1, "run": 23, "length_m": 10, "grid_bearing": 69.4, "max_offset_m": 0.0, "n_nodes": 3, "kept": false, "stroke": "#ff7f00", "stroke-width": 2}}, {"type": "Feature", "geometry": {"type": "LineString", "coordinates": [[11.595906, 48.141643699999996], [11.5959912, 48.1416859]]}, "properties": {"group": "run", "chain": 1, "run": 24, "length_m": 8, "grid_bearing": 51.6, "max_offset_m": 0.0, "n_nodes": 2, "kept": false, "stroke": "#ff7f00", "stroke-width": 2}}, {"type": "Feature", "geometry": {"type": "LineString", "coordinates": [[11.5959912, 48.1416859], [11.5960614, 48.14174859999999]]}, "properties": {"group": "run", "chain": 1, "run": 25, "length_m": 9, "grid_bearing": 34.9, "max_offset_m": 0.0, "n_nodes": 2, "kept": false, "stroke": "#ff7f00", "stroke-width": 2}}, {"type": "Feature", "geometry": {"type": "LineString", "coordinates": [[11.5960614, 48.14174859999999], [11.5961232, 48.1418461]]}, "properties": {"group": "run", "chain": 1, "run": 26, "length_m": 12, "grid_bearing": 21.1, "max_offset_m": 0.0, "n_nodes": 2, "kept": false, "stroke": "#ff7f00", "stroke-width": 2}}, {"type": "Feature", "geometry": {"type": "LineString", "coordinates": [[11.5961232, 48.1418461], [11.5962538, 48.1421178], [11.5963235, 48.1422901]]}, "properties": {"group": "run", "chain": 1, "run": 27, "length_m": 52, "grid_bearing": 14.9, "max_offset_m": 0.6, "n_nodes": 3, "kept": false, "stroke": "#ff7f00", "stroke-width": 2}}, {"type": "Feature", "geometry": {"type": "LineString", "coordinates": [[11.5963235, 48.1422901], [11.5963625, 48.142350799999996]]}, "properties": {"group": "run", "chain": 1, "run": 28, "length_m": 7, "grid_bearing": 21.3, "max_offset_m": 0.0, "n_nodes": 2, "kept": false, "stroke": "#ff7f00", "stroke-width": 2}}, {"type": "Feature", "geometry": {"type": "LineString", "coordinates": [[11.5963625, 48.142350799999996], [11.5963994, 48.1423891], [11.5964342, 48.1424251]]}, "properties": {"group": "run", "chain": 1, "run": 29, "length_m": 10, "grid_bearing": 30.9, "max_offset_m": 0.0, "n_nodes": 3, "kept": false, "stroke": "#ff7f00", "stroke-width": 2}}, {"type": "Feature", "geometry": {"type": "LineString", "coordinates": [[11.5964342, 48.1424251], [11.5965373, 48.14248589999999]]}, "properties": {"group": "run", "chain": 1, "run": 30, "length_m": 10, "grid_bearing": 46.7, "max_offset_m": 0.0, "n_nodes": 2, "kept": false, "stroke": "#ff7f00", "stroke-width": 2}}, {"type": "Feature", "geometry": {"type": "LineString", "coordinates": [[11.5965373, 48.14248589999999], [11.596629899999998, 48.142514799999994]]}, "properties": {"group": "run", "chain": 1, "run": 31, "length_m": 8, "grid_bearing": 63.1, "max_offset_m": 0.0, "n_nodes": 2, "kept": false, "stroke": "#ff7f00", "stroke-width": 2}}, {"type": "Feature", "geometry": {"type": "LineString", "coordinates": [[11.596629899999998, 48.142514799999994], [11.596727, 48.1425301]]}, "properties": {"group": "run", "chain": 1, "run": 32, "length_m": 7, "grid_bearing": 74.8, "max_offset_m": 0.0, "n_nodes": 2, "kept": false, "stroke": "#ff7f00", "stroke-width": 2}}, {"type": "Feature", "geometry": {"type": "LineString", "coordinates": [[11.596727, 48.1425301], [11.596832799999998, 48.14252869999999]]}, "properties": {"group": "run", "chain": 1, "run": 33, "length_m": 8, "grid_bearing": 89.2, "max_offset_m": 0.0, "n_nodes": 2, "kept": false, "stroke": "#ff7f00", "stroke-width": 2}}, {"type": "Feature", "geometry": {"type": "LineString", "coordinates": [[11.596832799999998, 48.14252869999999], [11.5969517, 48.14251230000001]]}, "properties": {"group": "run", "chain": 1, "run": 34, "length_m": 9, "grid_bearing": 99.7, "max_offset_m": 0.0, "n_nodes": 2, "kept": false, "stroke": "#ff7f00", "stroke-width": 2}}, {"type": "Feature", "geometry": {"type": "LineString", "coordinates": [[11.5969517, 48.14251230000001], [11.5970279, 48.1424908]]}, "properties": {"group": "run", "chain": 1, "run": 35, "length_m": 6, "grid_bearing": 110.9, "max_offset_m": 0.0, "n_nodes": 2, "kept": false, "stroke": "#ff7f00", "stroke-width": 2}}, {"type": "Feature", "geometry": {"type": "LineString", "coordinates": [[11.5970279, 48.1424908], [11.5971287, 48.1424393]]}, "properties": {"group": "run", "chain": 1, "run": 36, "length_m": 9, "grid_bearing": 125.4, "max_offset_m": 0.0, "n_nodes": 2, "kept": false, "stroke": "#ff7f00", "stroke-width": 2}}, {"type": "Feature", "geometry": {"type": "LineString", "coordinates": [[11.5971287, 48.1424393], [11.5971946, 48.14238490000001]]}, "properties": {"group": "run", "chain": 1, "run": 37, "length_m": 8, "grid_bearing": 139.0, "max_offset_m": 0.0, "n_nodes": 2, "kept": false, "stroke": "#ff7f00", "stroke-width": 2}}, {"type": "Feature", "geometry": {"type": "LineString", "coordinates": [[11.5971946, 48.14238490000001], [11.597242299999998, 48.14232020000001]]}, "properties": {"group": "run", "chain": 1, "run": 38, "length_m": 8, "grid_bearing": 151.8, "max_offset_m": 0.0, "n_nodes": 2, "kept": false, "stroke": "#ff7f00", "stroke-width": 2}}, {"type": "Feature", "geometry": {"type": "LineString", "coordinates": [[11.597242299999998, 48.14232020000001], [11.597274599999999, 48.14224229999999]]}, "properties": {"group": "run", "chain": 1, "run": 39, "length_m": 9, "grid_bearing": 162.6, "max_offset_m": 0.0, "n_nodes": 2, "kept": false, "stroke": "#ff7f00", "stroke-width": 2}}, {"type": "Feature", "geometry": {"type": "LineString", "coordinates": [[11.597274599999999, 48.14224229999999], [11.5972745, 48.1421991]]}, "properties": {"group": "run", "chain": 1, "run": 40, "length_m": 5, "grid_bearing": 178.2, "max_offset_m": 0.0, "n_nodes": 2, "kept": false, "stroke": "#ff7f00", "stroke-width": 2}}, {"type": "Feature", "geometry": {"type": "LineString", "coordinates": [[11.5972745, 48.1421991], [11.5972632, 48.1421378]]}, "properties": {"group": "run", "chain": 1, "run": 41, "length_m": 7, "grid_bearing": 185.1, "max_offset_m": 0.0, "n_nodes": 2, "kept": false, "stroke": "#ff7f00", "stroke-width": 2}}, {"type": "Feature", "geometry": {"type": "LineString", "coordinates": [[11.5972632, 48.1421378], [11.5971598, 48.1418206], [11.597128500000002, 48.141708799999996]]}, "properties": {"group": "run", "chain": 1, "run": 42, "length_m": 49, "grid_bearing": 189.9, "max_offset_m": 0.3, "n_nodes": 3, "kept": false, "stroke": "#ff7f00", "stroke-width": 2}}, {"type": "Feature", "geometry": {"type": "LineString", "coordinates": [[11.597128500000002, 48.141708799999996], [11.597118000000002, 48.141652300000004]]}, "properties": {"group": "run", "chain": 1, "run": 43, "length_m": 6, "grid_bearing": 185.2, "max_offset_m": 0.0, "n_nodes": 2, "kept": false, "stroke": "#ff7f00", "stroke-width": 2}}, {"type": "Feature", "geometry": {"type": "LineString", "coordinates": [[11.597118000000002, 48.141652300000004], [11.597118000000002, 48.14160549999999]]}, "properties": {"group": "run", "chain": 1, "run": 44, "length_m": 5, "grid_bearing": 178.1, "max_offset_m": 0.0, "n_nodes": 2, "kept": false, "stroke": "#ff7f00", "stroke-width": 2}}, {"type": "Feature", "geometry": {"type": "LineString", "coordinates": [[11.597118000000002, 48.14160549999999], [11.5971341, 48.141556499999986], [11.597148599999999, 48.1415231]]}, "properties": {"group": "run", "chain": 1, "run": 45, "length_m": 9, "grid_bearing": 164.1, "max_offset_m": 0.2, "n_nodes": 3, "kept": false, "stroke": "#ff7f00", "stroke-width": 2}}, {"type": "Feature", "geometry": {"type": "LineString", "coordinates": [[11.597148599999999, 48.1415231], [11.597191399999998, 48.141470399999996]]}, "properties": {"group": "run", "chain": 1, "run": 46, "length_m": 7, "grid_bearing": 149.5, "max_offset_m": 0.0, "n_nodes": 2, "kept": false, "stroke": "#ff7f00", "stroke-width": 2}}, {"type": "Feature", "geometry": {"type": "LineString", "coordinates": [[11.597191399999998, 48.141470399999996], [11.5972325, 48.1414397], [11.597289, 48.141402600000006]]}, "properties": {"group": "run", "chain": 1, "run": 47, "length_m": 10, "grid_bearing": 134.1, "max_offset_m": 0.2, "n_nodes": 3, "kept": false, "stroke": "#ff7f00", "stroke-width": 2}}, {"type": "Feature", "geometry": {"type": "LineString", "coordinates": [[11.597289, 48.141402600000006], [11.597379299999998, 48.14136649999999]]}, "properties": {"group": "run", "chain": 1, "run": 48, "length_m": 8, "grid_bearing": 118.9, "max_offset_m": 0.0, "n_nodes": 2, "kept": false, "stroke": "#ff7f00", "stroke-width": 2}}, {"type": "Feature", "geometry": {"type": "LineString", "coordinates": [[11.597379299999998, 48.14136649999999], [11.5975489, 48.1413172]]}, "properties": {"group": "run", "chain": 1, "run": 49, "length_m": 14, "grid_bearing": 111.5, "max_offset_m": 0.0, "n_nodes": 2, "kept": false, "stroke": "#ff7f00", "stroke-width": 2}}, {"type": "Feature", "geometry": {"type": "LineString", "coordinates": [[11.5975489, 48.1413172], [11.598175, 48.1411938], [11.5985149, 48.1411318], [11.5985433, 48.141127299999994], [11.5985719, 48.1411188], [11.5986072, 48.1411018]]}, "properties": {"group": "run", "chain": 1, "run": 50, "length_m": 82, "grid_bearing": 105.0, "max_offset_m": 1.3, "n_nodes": 6, "kept": false, "stroke": "#ff7f00", "stroke-width": 2}}, {"type": "Feature", "geometry": {"type": "LineString", "coordinates": [[11.5986072, 48.1411018], [11.5986267, 48.14108799999999], [11.598632399999998, 48.141084]]}, "properties": {"group": "run", "chain": 1, "run": 51, "length_m": 3, "grid_bearing": 134.6, "max_offset_m": 0.0, "n_nodes": 3, "kept": false, "stroke": "#ff7f00", "stroke-width": 2}}, {"type": "Feature", "geometry": {"type": "LineString", "coordinates": [[11.598632399999998, 48.141084], [11.598747500000002, 48.141029200000006], [11.5987739, 48.1410166]]}, "properties": {"group": "run", "chain": 1, "run": 52, "length_m": 13, "grid_bearing": 123.5, "max_offset_m": 0.0, "n_nodes": 3, "kept": false, "stroke": "#ff7f00", "stroke-width": 2}}, {"type": "Feature", "geometry": {"type": "LineString", "coordinates": [[11.5987739, 48.1410166], [11.598996799999998, 48.14093119999998]]}, "properties": {"group": "run", "chain": 1, "run": 53, "length_m": 19, "grid_bearing": 117.9, "max_offset_m": 0.0, "n_nodes": 2, "kept": false, "stroke": "#ff7f00", "stroke-width": 2}}, {"type": "Feature", "geometry": {"type": "LineString", "coordinates": [[11.598996799999998, 48.14093119999998], [11.5999688, 48.1407359], [11.600076900000001, 48.14071620000001], [11.600096400000002, 48.14071210000001], [11.6001161, 48.14070809999999], [11.6001517, 48.140701], [11.6002184, 48.140687400000004], [11.600631299999998, 48.14060249999999], [11.6014314, 48.140440999999996], [11.6021075, 48.140300399999994], [11.6029582, 48.140121499999985], [11.6034969, 48.1400248], [11.6038294, 48.1399651], [11.6042863, 48.13988299999999]]}, "properties": {"group": "run", "chain": 1, "run": 54, "length_m": 411, "grid_bearing": 104.6, "max_offset_m": 2.6, "n_nodes": 14, "kept": true, "stroke": "#e41a1c", "stroke-width": 2}}, {"type": "Feature", "geometry": {"type": "LineString", "coordinates": [[11.6042863, 48.13988299999999], [11.6044545, 48.13985469999999]]}, "properties": {"group": "run", "chain": 1, "run": 55, "length_m": 13, "grid_bearing": 102.2, "max_offset_m": 0.0, "n_nodes": 2, "kept": false, "stroke": "#ff7f00", "stroke-width": 2}}, {"type": "Feature", "geometry": {"type": "LineString", "coordinates": [[11.6044545, 48.13985469999999], [11.6046615, 48.13978660000001]]}, "properties": {"group": "run", "chain": 1, "run": 56, "length_m": 17, "grid_bearing": 114.2, "max_offset_m": 0.0, "n_nodes": 2, "kept": false, "stroke": "#ff7f00", "stroke-width": 2}}, {"type": "Feature", "geometry": {"type": "LineString", "coordinates": [[11.6046615, 48.13978660000001], [11.605247699999998, 48.139711999999996], [11.6054663, 48.1396857], [11.6061203, 48.139615799999994], [11.6062563, 48.1395984], [11.606297699999999, 48.1395917], [11.606340599999998, 48.13958339999999], [11.6064003, 48.139568999999995]]}, "properties": {"group": "run", "chain": 1, "run": 57, "length_m": 132, "grid_bearing": 98.6, "max_offset_m": 1.3, "n_nodes": 8, "kept": false, "stroke": "#ff7f00", "stroke-width": 2}}, {"type": "Feature", "geometry": {"type": "LineString", "coordinates": [[11.6064003, 48.139568999999995], [11.606488899999999, 48.139545], [11.606543799999999, 48.139526499999995]]}, "properties": {"group": "run", "chain": 1, "run": 58, "length_m": 12, "grid_bearing": 111.9, "max_offset_m": 0.2, "n_nodes": 3, "kept": false, "stroke": "#ff7f00", "stroke-width": 2}}, {"type": "Feature", "geometry": {"type": "LineString", "coordinates": [[11.606543799999999, 48.139526499999995], [11.6065964, 48.1395048], [11.606622299999998, 48.13949259999999], [11.6066571, 48.1394748], [11.606696099999999, 48.139452500000004], [11.606735499999997, 48.139427]]}, "properties": {"group": "run", "chain": 1, "run": 59, "length_m": 18, "grid_bearing": 125.9, "max_offset_m": 0.6, "n_nodes": 6, "kept": false, "stroke": "#ff7f00", "stroke-width": 2}}, {"type": "Feature", "geometry": {"type": "LineString", "coordinates": [[11.606735499999997, 48.139427], [11.6069527, 48.13926850000001], [11.6070881, 48.139171600000005], [11.6072207, 48.1390756], [11.6072779, 48.139037099999996], [11.6073005, 48.1390236], [11.6073233, 48.139012399999984], [11.6073449, 48.13900370000001]]}, "properties": {"group": "run", "chain": 1, "run": 60, "length_m": 65, "grid_bearing": 134.1, "max_offset_m": 1.1, "n_nodes": 8, "kept": false, "stroke": "#ff7f00", "stroke-width": 2}}, {"type": "Feature", "geometry": {"type": "LineString", "coordinates": [[11.6073449, 48.13900370000001], [11.6073686, 48.13899769999999], [11.6073937, 48.1389925], [11.6074539, 48.1389852]]}, "properties": {"group": "run", "chain": 1, "run": 61, "length_m": 8, "grid_bearing": 102.3, "max_offset_m": 0.3, "n_nodes": 4, "kept": false, "stroke": "#ff7f00", "stroke-width": 2}}, {"type": "Feature", "geometry": {"type": "LineString", "coordinates": [[11.6074539, 48.1389852], [11.6075556, 48.138975599999995], [11.6076575, 48.1389695]]}, "properties": {"group": "run", "chain": 1, "run": 62, "length_m": 15, "grid_bearing": 94.6, "max_offset_m": 0.2, "n_nodes": 3, "kept": false, "stroke": "#ff7f00", "stroke-width": 2}}, {"type": "Feature", "geometry": {"type": "LineString", "coordinates": [[11.6076575, 48.1389695], [11.6077923, 48.13895180000001], [11.6079009, 48.1389377]]}, "properties": {"group": "run", "chain": 1, "run": 63, "length_m": 18, "grid_bearing": 99.1, "max_offset_m": 0.0, "n_nodes": 3, "kept": false, "stroke": "#ff7f00", "stroke-width": 2}}, {"type": "Feature", "geometry": {"type": "LineString", "coordinates": [[11.6079009, 48.1389377], [11.6079773, 48.1389251], [11.6091162, 48.1387374], [11.609870499999998, 48.13862559999999], [11.6100532, 48.1385985], [11.6102748, 48.1385688], [11.6104269, 48.1385472], [11.611705799999998, 48.1383774]]}, "properties": {"group": "run", "chain": 1, "run": 64, "length_m": 290, "grid_bearing": 100.5, "max_offset_m": 2.4, "n_nodes": 8, "kept": false, "stroke": "#ff7f00", "stroke-width": 2}}, {"type": "Feature", "geometry": {"type": "LineString", "coordinates": [[11.611705799999998, 48.1383774], [11.611776199999998, 48.138370399999985], [11.6118467, 48.138363299999995], [11.6124739, 48.1383002], [11.6130899, 48.13824499999999]]}, "properties": {"group": "run", "chain": 1, "run": 65, "length_m": 104, "grid_bearing": 96.2, "max_offset_m": 0.4, "n_nodes": 5, "kept": false, "stroke": "#ff7f00", "stroke-width": 2}}, {"type": "Feature", "geometry": {"type": "LineString", "coordinates": [[11.6130899, 48.13824499999999], [11.6144243, 48.1381779], [11.614501300000002, 48.13817489999999], [11.614650099999999, 48.1381691], [11.6148489, 48.1381613], [11.614939499999998, 48.1381577], [11.615598399999998, 48.1381346], [11.615907299999998, 48.1381238], [11.616401799999998, 48.13811329999999], [11.6165977, 48.13810910000001], [11.616678300000002, 48.138107399999996], [11.617065999999998, 48.1380991]]}, "properties": {"group": "run", "chain": 1, "run": 66, "length_m": 296, "grid_bearing": 91.2, "max_offset_m": 2.2, "n_nodes": 12, "kept": false, "stroke": "#ff7f00", "stroke-width": 2}}, {"type": "Feature", "geometry": {"type": "LineString", "coordinates": [[11.617065999999998, 48.1380991], [11.617486399999999, 48.138095099999994], [11.6181566, 48.13808869999999], [11.6182806, 48.13808749999999], [11.618377199999998, 48.138086599999994], [11.6184604, 48.1380857], [11.618567999999998, 48.13808569999999], [11.618625199999999, 48.13808569999999], [11.6191939, 48.1380792]]}, "properties": {"group": "run", "chain": 1, "run": 67, "length_m": 158, "grid_bearing": 88.9, "max_offset_m": 0.1, "n_nodes": 9, "kept": false, "stroke": "#ff7f00", "stroke-width": 2}}, {"type": "Feature", "geometry": {"type": "LineString", "coordinates": [[11.6191939, 48.1380792], [11.6194326, 48.1380849], [11.6197421, 48.1380894], [11.619808000000003, 48.13809609999999]]}, "properties": {"group": "run", "chain": 1, "run": 68, "length_m": 46, "grid_bearing": 85.7, "max_offset_m": 0.5, "n_nodes": 4, "kept": false, "stroke": "#ff7f00", "stroke-width": 2}}, {"type": "Feature", "geometry": {"type": "LineString", "coordinates": [[11.619808000000003, 48.13809609999999], [11.620019, 48.13811239999999], [11.620161, 48.13812420000001], [11.6202274, 48.13812969999999], [11.621354499999999, 48.13820159999999], [11.6215033, 48.13821109999999], [11.621589699999998, 48.1382166], [11.6228284, 48.1383046], [11.622881400000002, 48.1383084]]}, "properties": {"group": "run", "chain": 1, "run": 69, "length_m": 230, "grid_bearing": 82.2, "max_offset_m": 0.5, "n_nodes": 9, "kept": false, "stroke": "#ff7f00", "stroke-width": 2}}, {"type": "Feature", "geometry": {"type": "LineString", "coordinates": [[11.6076575, 48.1389695], [11.6075516, 48.1390104], [11.6075111, 48.1390263], [11.6074744, 48.1390432], [11.6074282, 48.139067], [11.607385, 48.1390941], [11.6070573, 48.1393329], [11.6069178, 48.1394453], [11.6068432, 48.1394992], [11.6067812, 48.1395408], [11.6067151, 48.1395798], [11.6066903, 48.1395928], [11.6066682, 48.139603], [11.6066467, 48.139612], [11.6066181, 48.1396236], [11.6065884, 48.1396331], [11.6065619, 48.1396397], [11.60652, 48.1396478], [11.6064911, 48.1396521], [11.6064195, 48.1396611], [11.6063126, 48.1396736], [11.6061155, 48.1396953], [11.6057572, 48.1397348], [11.6052973, 48.1397855], [11.6051698, 48.1397998], [11.6046735, 48.1398556], [11.6044545, 48.1398547]]}, "properties": {"group": "chain", "chain": 2, "n_nodes": 27, "way_ids": [31175540, 157653355, 1420705730, 1420705732, 1420705733, 1446912511, 1446912512], "n_runs": 8, "stroke": "#1f78b4", "stroke-width": 3, "stroke-opacity": 0.8}}, {"type": "Feature", "geometry": {"type": "LineString", "coordinates": [[11.6076575, 48.1389695], [11.6075516, 48.13901039999999], [11.6075111, 48.1390263], [11.6074744, 48.13904319999999]]}, "properties": {"group": "run", "chain": 2, "run": 0, "length_m": 16, "grid_bearing": 299.1, "max_offset_m": 0.2, "n_nodes": 4, "kept": false, "stroke": "#ff7f00", "stroke-width": 2}}, {"type": "Feature", "geometry": {"type": "LineString", "coordinates": [[11.6074744, 48.13904319999999], [11.6074282, 48.13906699999999], [11.607385000000003, 48.1390941], [11.607057299999997, 48.139332899999985]]}, "properties": {"group": "run", "chain": 2, "run": 1, "length_m": 45, "grid_bearing": 314.1, "max_offset_m": 0.9, "n_nodes": 4, "kept": false, "stroke": "#ff7f00", "stroke-width": 2}}, {"type": "Feature", "geometry": {"type": "LineString", "coordinates": [[11.607057299999997, 48.139332899999985], [11.6069178, 48.1394453]]}, "properties": {"group": "run", "chain": 2, "run": 2, "length_m": 16, "grid_bearing": 318.3, "max_offset_m": 0.0, "n_nodes": 2, "kept": false, "stroke": "#ff7f00", "stroke-width": 2}}, {"type": "Feature", "geometry": {"type": "LineString", "coordinates": [[11.6069178, 48.1394453], [11.6068432, 48.1394992], [11.6067812, 48.139540800000006]]}, "properties": {"group": "run", "chain": 2, "run": 3, "length_m": 15, "grid_bearing": 314.3, "max_offset_m": 0.1, "n_nodes": 3, "kept": false, "stroke": "#ff7f00", "stroke-width": 2}}, {"type": "Feature", "geometry": {"type": "LineString", "coordinates": [[11.6067812, 48.139540800000006], [11.6067151, 48.1395798], [11.6066903, 48.1395928], [11.6066682, 48.139602999999994]]}, "properties": {"group": "run", "chain": 2, "run": 4, "length_m": 11, "grid_bearing": 307.5, "max_offset_m": 0.2, "n_nodes": 4, "kept": false, "stroke": "#ff7f00", "stroke-width": 2}}, {"type": "Feature", "geometry": {"type": "LineString", "coordinates": [[11.6066682, 48.139602999999994], [11.606646699999999, 48.139611999999985], [11.6066181, 48.13962359999999], [11.6065884, 48.13963309999998], [11.6065619, 48.13963969999999], [11.60652, 48.1396478], [11.6064911, 48.139652099999985]]}, "properties": {"group": "run", "chain": 2, "run": 5, "length_m": 14, "grid_bearing": 290.6, "max_offset_m": 0.8, "n_nodes": 7, "kept": false, "stroke": "#ff7f00", "stroke-width": 2}}, {"type": "Feature", "geometry": {"type": "LineString", "coordinates": [[11.6064911, 48.139652099999985], [11.6064195, 48.1396611], [11.6063126, 48.139673599999995], [11.6061155, 48.13969530000001], [11.6057572, 48.13973479999999], [11.6052973, 48.1397855], [11.605169799999999, 48.13979979999999], [11.6046735, 48.1398556]]}, "properties": {"group": "run", "chain": 2, "run": 6, "length_m": 137, "grid_bearing": 277.6, "max_offset_m": 0.2, "n_nodes": 8, "kept": false, "stroke": "#ff7f00", "stroke-width": 2}}, {"type": "Feature", "geometry": {"type": "LineString", "coordinates": [[11.6046735, 48.1398556], [11.6044545, 48.13985469999999]]}, "properties": {"group": "run", "chain": 2, "run": 7, "length_m": 16, "grid_bearing": 267.7, "max_offset_m": 0.0, "n_nodes": 2, "kept": false, "stroke": "#ff7f00", "stroke-width": 2}}, {"type": "Feature", "geometry": {"type": "LineString", "coordinates": [[11.5873334, 48.1433101], [11.587185, 48.143323], [11.58709, 48.1433319], [11.5867748, 48.1433848], [11.5863216, 48.1434617], [11.5861003, 48.1435012], [11.5858877, 48.1435418], [11.5852148, 48.1436753], [11.5845599, 48.1438079]]}, "properties": {"group": "chain", "chain": 3, "n_nodes": 9, "way_ids": [145431467, 145431470], "n_runs": 2, "stroke": "#1f78b4", "stroke-width": 3, "stroke-opacity": 0.8}}, {"type": "Feature", "geometry": {"type": "LineString", "coordinates": [[11.5873334, 48.143310099999994], [11.587185, 48.143323], [11.587090000000002, 48.1433319]]}, "properties": {"group": "run", "chain": 3, "run": 0, "length_m": 18, "grid_bearing": 275.7, "max_offset_m": 0.0, "n_nodes": 3, "kept": false, "stroke": "#ff7f00", "stroke-width": 2}}, {"type": "Feature", "geometry": {"type": "LineString", "coordinates": [[11.587090000000002, 48.1433319], [11.5867748, 48.14338479999999], [11.5863216, 48.143461699999996], [11.5861003, 48.1435012], [11.5858877, 48.143541799999994], [11.585214800000001, 48.143675299999984], [11.5845599, 48.1438079]]}, "properties": {"group": "run", "chain": 3, "run": 1, "length_m": 196, "grid_bearing": 283.8, "max_offset_m": 1.8, "n_nodes": 7, "kept": false, "stroke": "#ff7f00", "stroke-width": 2}}, {"type": "Feature", "geometry": {"type": "LineString", "coordinates": [[11.5981685, 48.1409444], [11.5982457, 48.1409298], [11.5983796, 48.140906], [11.5985033, 48.1408974], [11.598689, 48.1409013], [11.5988128, 48.1408948]]}, "properties": {"group": "chain", "chain": 4, "n_nodes": 6, "way_ids": [975391124], "n_runs": 4, "stroke": "#1f78b4", "stroke-width": 3, "stroke-opacity": 0.8}}, {"type": "Feature", "geometry": {"type": "LineString", "coordinates": [[11.598168500000002, 48.140944400000016], [11.5982457, 48.1409298], [11.5983796, 48.140905999999994]]}, "properties": {"group": "run", "chain": 4, "run": 0, "length_m": 16, "grid_bearing": 103.3, "max_offset_m": 0.1, "n_nodes": 3, "kept": false, "stroke": "#ff7f00", "stroke-width": 2}}, {"type": "Feature", "geometry": {"type": "LineString", "coordinates": [[11.5983796, 48.140905999999994], [11.598503300000003, 48.1408974]]}, "properties": {"group": "run", "chain": 4, "run": 1, "length_m": 9, "grid_bearing": 94.0, "max_offset_m": 0.0, "n_nodes": 2, "kept": false, "stroke": "#ff7f00", "stroke-width": 2}}, {"type": "Feature", "geometry": {"type": "LineString", "coordinates": [[11.598503300000003, 48.1408974], [11.598689, 48.14090130000001]]}, "properties": {"group": "run", "chain": 4, "run": 2, "length_m": 14, "grid_bearing": 86.3, "max_offset_m": 0.0, "n_nodes": 2, "kept": false, "stroke": "#ff7f00", "stroke-width": 2}}, {"type": "Feature", "geometry": {"type": "LineString", "coordinates": [[11.598689, 48.14090130000001], [11.5988128, 48.1408948]]}, "properties": {"group": "run", "chain": 4, "run": 3, "length_m": 9, "grid_bearing": 92.5, "max_offset_m": 0.0, "n_nodes": 2, "kept": false, "stroke": "#ff7f00", "stroke-width": 2}}]}